LON,LAT,resource_t,org_name,address,contact_na,contact_ti,phone,email,optional_r
-83.7836403,38.592917,Ag Tourism Venue,"""R"" Farm Pumpkins & More LLC","7171 Strodes Run Rd Maysville, KY 41056",Loura or Davis Robinson,,(606) 742-2429,estillrobinson@rfarm.com,www.r-farm.com
-85.1809718,37.6648262,Ag Tourism Venue,1851 Historic Maple Hill Manor,"2941 Perryville Rd US 150 Springfield, KY 40069",Todd Allen,,(859) 336-3075,stay@maplehillmanor.com,www.maplehillmanor.com
-84.0828852,37.9172688,Ag Tourism Venue,Agawam Farm,"800 Agawam Rd Winchester, KY 40391",Lori Winburn Payne,,(859) 595-1570,Winbu9@aol.com,
-86.533274,36.930301,Ag Tourism Venue,Alive N' Fuzzy,"299 Misty Lane Bowling Green, KY 42101",Elaine Painter,,,docepaint@yahoo.com,
-87.4222872,36.9122707,Ag Tourism Venue,Amazing Acres,"3445 Deason Rd Hopkinsville, KY 42240",Natalie Allison,,(270) 881-2445,natalieallison@yahoo.com,
-84.5599356,38.3028279,Ag Tourism Venue,Amerson Farm,"2731 Cincinnati Pike Georgetown, KY 40324",Paul & Emma Kleinhenz,,(502) 863-3799,sales@amersonfarms.com,www.amersonfarms.com
-84.3540877,38.1245686,Ag Tourism Venue,Antioch Daylilly Garden,"2231 Houston Antioch Rd Lexington, KY 40516",Charlie & Lisa Farmer,,(859) 293-0350,antiochdaylily@gmail.com,www.antiochdaylilygarden.com
-84.3421635,37.3587057,Ag Tourism Venue,Appalachia- Science In The Public Interest,"50 Lair St. Mt Vernon, KY 40456",Suzanne Van Etten,,(606) 256-0077,suzi@a-spi.org,www.a-spi.org
-86.293144,37.539677,Ag Tourism Venue,"Arbor Stone Vineyards, LLC","315 Hardin Road Leitchfield, KY 42754",William Davis,,(270) 230-1321,arborstonevineyards@gmail.com,www.arborstonevineyards.com
-84.4464409,37.894674,Ag Tourism Venue,Ardinn Farm Llc,"7704 Tates Creek Road Lexington, KY 40515",Martha Dereamer,,(859) 272-7155,ardinnfarm@icloud.com,www.ardinnfarm.com
-85.5369255,36.9595615,Ag Tourism Venue,Argent Moon Farm,"711 Reese Hurt Rd Edmonton, KY 42129",Bren Echols,,(270) 432-3174,brmechols@gmail.com,
-84.317778,38.993707,Ag Tourism Venue,Arrasmith Farm,"3595 Fender Road  Melbourne, KY 41059",Harriet Arrasmith,,(859) 630-1711,arrasmithfarm@gmail.com,www.arrasmithfarm.com
-84.6495092,38.1593494,Ag Tourism Venue,Artisan Brands Group LLC,"1009 Moores Mill Rd Midway, KY 40347",Pamela Trautner,,,artisanbrands@gmail.com,
-84.55176,38.868474,Ag Tourism Venue,Atwood Hill Winery,"1616 Spilllman Rd  Morning View, KY 41063",Julie Clinkenbeard,,(859) 356-1936,info@atwoodhillwinery.com,www.atwoodhillwinery.com
-84.856942,38.4274562,Ag Tourism Venue,Ayres Family Orchard,"525 Wilson Ln Owenton, KY 40359",Larry Ayres,,(502) 484-5236,ayresapples@att.net,www.ayresapples.com
-83.721629,38.1851518,Ag Tourism Venue,B&E Farms - State Creek Farms,"1787 Wyoming Road Owingsville, KY 40360",Mary/Robert Bach,,(606) 674-2953,marycrainbach@hotmail.com,
-83.7149181,36.8831429,Ag Tourism Venue,Baker Family Farm,"2219 Laurel Branch Road Walker, KY 40997",Grant Baker,,(606) 542-0077,gnmbaker@gmail.com,
-84.1444367,38.784478,Ag Tourism Venue,Baker-Bird Winery,"1941 Bradford Road Foster, KY 41043",Dinah Bird,,(606) 747-0616,dinahbird@earthlink.net,www.bakerbirdwinery.com
-84.3565416,37.7641282,Ag Tourism Venue,Baldwin Farms,"1113 Tates Creek Rd Richmond, KY 40476",Margery Baldwin,,(859) 582-5785,mbaldwin@baldwinfarmsky.com,www.baldwinfarmsky.com
-84.387603,38.0047831,Ag Tourism Venue,Barker's Christmas Tree Farm,"1500 Deer Haven Lane Lexington, KY 40509",Dale Barker,,(859) 223-4354,Dalebarker@insightbb.com,barkerschristmastreefarm.com
-84.7320143,37.1013888,Ag Tourism Venue,Bear Wallow Farm,"1225 Piney Grove Rd Nancy, KY 42544",Wesley Logsdon,,(606) 875-5160,bearwallowfarm@hotmail.com,www.bearwallowfarm.com
-84.6068797,38.8983932,Ag Tourism Venue,Benton Family Farm,"11896 Old Lexington Pike Walton, KY 41094",Mary Marcum,,(859) 485-7000,bentonfamilyfarm@aol.com,bentonfarm.com
-84.3,37.57,Ag Tourism Venue,Berea College Farm,"CPO 1743 Berea, KY 40404",Sean Clark,,(859) 985-3402,farmstore@berea.edu,www.berea.edu/anr/farm-enterprises/
-84.2971685,37.5708653,Ag Tourism Venue,Berea Urban Farm,"201 Adams Street Berea, KY 40403",Richard Olson,,(859) 985-1936,FarmMgmt@SustainableBerea.org,www.BereaUrbanFarm.org
-86.5093427,36.8235211,Ag Tourism Venue,Berrylicious Orchard,"531 Clay Starks Road Woodburn, KY 42170",Larissa Adams,,(270) 392-0211,Berryliciousorchard@yahoo.com,berryliciousorchard.com
-84.5639115,38.2267848,Ag Tourism Venue,Bi-Water Farm & Greenhouse,"877 Cincinnati Rd Georgetown, KY 40324",Stephen Fister,,(502) 863-3676,biwaterfarm@bellsouth.net,www.biwaterfarm.com
-85.3406946,38.2664102,Ag Tourism Venue,Big Springs Farm,"3840 Todds Point Road  Simpsonville, KY 40067",Catherine Fortener,,(502) 722-0624,Bgsprngsfrm@aol.com,bigspringsfarm.org
-84.8842874,38.2066286,Ag Tourism Venue,Bill's Bees,"3115 US Hwy 421 N Frankfort, KY 40601",William Dickerson,,(502) 418-0969,bill@aerialrobotics.com,
-84.143326,37.9470816,Ag Tourism Venue,Blewegrass Apiary,"4040 Muddy Creek Rd Winchester, KY 40391",Lauren White,,(606) 226-4866,blewegrassapiary@gmail.com,www.facebook.com/profile.php?id=100009290006005&fref=ts
-84.6368556,38.8856221,Ag Tourism Venue,Blue Ribbon Market Gruelle Farm,"12250 Gaines Way  Walton, KY 41094",Ronald L. Gruelle,,(859) 485-7711,dgruelle@cpgnet.com,www.blueribbonmarket.com
-87.0842622,37.6800383,Ag Tourism Venue,Blueberries Of Daviess County,"1401 Hill Bridge Rd  Utica, KY 42376",Nancy Mccormick,,(270) 926-6510,blueberriesofdaviesscounty@yahoo.com,blueberriesofdaviesscounty.com
-86.2211867,36.9500829,Ag Tourism Venue,Bluegrass Blueberries,"11067 Porter Pike Rd Oakland, KY 42159",Jeff & Kim Essig,,(270) 432-5836,blueberrynurseryky@gmail.com,www.bluegrassblueberries.com
-83.9011878,38.0593107,Ag Tourism Venue,Bramble Ridge Orchard And Farm,"2726 Osborne Rd Mt Sterling, KY 40353",Carol & Rick Gunderson,,(859) 274-4063,rick@compulinx.net,www.brambleridgefarmandorchard.com
-85.3316969,38.5674913,Ag Tourism Venue,Bray Orchard & Roadside Market,"2580 Hwy 42 W Bedford, KY 40006",Jamae Bray Pyles,,(502) 255-3607,brayorch@bellsouth.net,www.brayorchards.com
-84.8756481,38.1541498,Ag Tourism Venue,Brooks Hill Farm,"1131 Johnson Rd  Frankfort, KY 40601",Deborah B Hill,,(859) 271-9499,dbhill@uky.edu,
-84.8965948,38.0795166,Ag Tourism Venue,Buckmeadow Farms,"1384 Ninevah Rd Lawrenceburg, KY 40342",Kelli Buckley,,(502) 680-1824,buckmeadowfarms@yahoo.com,
-85.1465341,37.0187381,Ag Tourism Venue,Cabin on the Hill Bed & Breakfast,"1019 Mt. Pleasant Road Russell Springs, KY 42642",Pam and Randy York,,(270) 585-3608,youks3aduo-county.com,
-86.2838622,37.8803429,Ag Tourism Venue,Calisi Farm Vineyard,"10702 W Hwy 86 Irvington, KY 40146",Sam Calisi,,(270) 547-7774,sccalisi@gmail.com,
-85.2557087,37.7066333,Ag Tourism Venue,Campbell's West Wind Farm,"2888 Bardstown Rd Springfield, KY 40069",Norma Jean Campbell,,(859) 336-9283,normajcampbell@bellsouth.net,
-84.7436438,37.8457118,Ag Tourism Venue,Canaan Land Farm,"700 Canaan Land Rd Harrodsburg, KY 40330",Alan McIntosh,,(888) 734-3984,mcintal@aol.com,
-84.9422157,37.651901,Ag Tourism Venue,Canadian Camp Farm,"626 E. 2Nd St. Perryville, KY 40468",Chris Brummett,,(859) 583-9780,chrisbrummett@kywimax.com,
-87.965752,36.8174434,Ag Tourism Venue,Carolines Garden,"68 Audrey Ave Cadiz, KY 42211",James Redd,,(270) 348-1175,Jandhredd@gmail.com,
-86.4183749,36.8807096,Ag Tourism Venue,Cason's Cove Cottage & Venue,"3140 Plano Rd Bowling Green, KY 42104",Gabriele Bush,,(270) 202-0303,gabpics2@gmail.com,www.casonscove.com
-87.60732,37.7261418,Ag Tourism Venue,Cates Farm,"8132 Pruitt Agnew Rd Henderson, KY 42420",Amy Cates,,(270) 827-1135,catesfarmpro@yahoo.com,
-84.6948276,37.2196969,Ag Tourism Venue,Cave Hill Vineyard & Winery LLC,"2115 Smith Ridge Rd Eubank, KY 42567",Bill & Debbie Patterson,,(606) 423-3453,info@cavehillvineyard.com,www.cavehillvineyard.com
-84.6958466,37.2205468,Ag Tourism Venue,Cave Hill Winery LLC,"45 Cave Hill Way Eubank, KY 42567",Debbie Patterson,,(606) 423-3453,wine@cavehillvineyard.com,cavehillvineyard.com
-87.9085204,37.1422109,Ag Tourism Venue,Cayce's Pumpkin Patch/Cayce Farms,"153 Farmersville Road  Princeton, KY 42445",Harold Cayce,,(270) 365-2132,e.cayce@att.net,www.caycespumpkinpatch.com
-83.8756672,37.9870039,Ag Tourism Venue,Cecil Farm,"6829 Camargo Rd Jeffersonville, KY 40337",Amy or Courtney Cecil,,(859) 432-8320,cecilfarms10@yahoo.com,
-87.3198831,37.6606167,Ag Tourism Venue,Cecil Farms Produce Delivery,"8753 and 9408 Mulligan Road Owensboro, KY 42301",Suzanne Cecil White,,(270) 929-1445,suzannececilwhite@gmail.com,www.cecilfarmspd.com
-84.453277,37.129597,Ag Tourism Venue,Cedar Creek Vineyards,"294 Cedar Creek Lane  Somerset, KY 42501",Jeffrey Wiles,,(606) 274-1964,jeff@cedarcreekvineyards.net,www.cedarcreekvineyards.net
-85.0051877,38.2225369,Ag Tourism Venue,Cedar Fire LLC,"758 Beechridge Rd Frankfort, KY 40601",Thecla Helmbrecht Howard,,,thecla@hughes.net,
-87.5594,37.8704134,Ag Tourism Venue,Chaps,"826 Lamont Lane Henderson, KY 42420",James Franks,,,jefranks55@gmail.com,
-84.504538,37.839464,Ag Tourism Venue,Chrisman Mill Vineyards,"2385 Chrisman Mill Road  Nicholasville, KY 40356",Denise J Nelson,,(859) 881-5007,chrismanmill@aol.com,www.chrismanmill.com
-87.301818,37.034932,Ag Tourism Venue,Christian Way Farm LLC,"19590 Linville Rd Hopkinsville, KY 42240",Milton & Janie Corley,,(270) 269-2434,christianwayfarm@gmail.com,www.christianwayfarm.com
-86.5609772,36.8553366,Ag Tourism Venue,Circle W Farms,"680 Travelstead Rd Woodburn, KY 42170",Kristen Wyrick,,,circlewfarmsky@hotmail.com,
-84.234337,37.5063699,Ag Tourism Venue,Clear Creek Community Farm,"1882 Hammonds Fork Rd Disputanta, KY 40456",Michael Beck,,(606) 256-0820,michaelbeck14903@gmail.com,
-85.277316,38.1102194,Ag Tourism Venue,Coop's Rockies Farm,"299 Haley Road Shelbyville, KY 40065",Alicia Coop,,(502) 777-4949,aliciacoop@rocketmail.com,
-85.2194839,38.4588076,Ag Tourism Venue,Cooper Family Farm,"920 Scobie Lane  New Castle, KY 40050",Sharon or Robert Cooper,,(502) 744-5793,cooperfamilyfarm@gmail.com,
-85.6370372,38.0156987,Ag Tourism Venue,Country Corner Greenhouse & Nursery Inc.,"4877 Hwy 44E Shepherdsville, KY 40165",Ann Vowels,,(502) 955-8635,countrycornergreenhouse@gmail.com,www.countrycornergreenhouse.com
-85.8026498,37.6267315,Ag Tourism Venue,Crawford Farms,"3999 Hodgenville Rd Elizabethtown, KY 42701",Mason Crawford,,,info@crawfordgrowgreen.com,www.crawfordpumpkins.com
-84.7830145,37.9789237,Ag Tourism Venue,Crowley's Mill,"475 Arrowhead Springs Lane Versailles, KY 40383",Terri Crowley,,(859) 753-5806,terrigcrowley@yahoo.com,www.crowleysmill.com
-87.9166915,37.6833776,Ag Tourism Venue,Cullenook Farm,"4819 St Rt 758  Morganfield, KY 42437",Carole Cowan,,(270) 952-8488,carole@cullenookfarm.com,www.cullenookfarm.com
-85.3705186,36.7903399,Ag Tourism Venue,Cumberland River Trading Company,"1043 Freeferry Rd Burkesville, KY 42717",David R Booher,,(270) 443-5172,david.booher@wayne.kyschools.us,
-87.468477,36.8647335,Ag Tourism Venue,Daigre Farms,"1531 East 7Th St. Hopkinsville, KY 42240",Carolsue Daigre,,(270) 344-1429,daigrefarms@hotmail.com,
-86.5743812,36.9304828,Ag Tourism Venue,Dancing Wind Berry Farm,"1289 Rockfield Browning Rd Rockfield, KY 42274",Julie Kratts,,(270) 535-7237,dancingwindberryfarm@gmail.com,
-84.9115995,37.842097,Ag Tourism Venue,Daynabrook Greenhouse And Farm,"1035 Hopewell Road Harrodsburg, KY 40330",John Lyons,,(859) 734-7863,lyons.lawncare@gmail.com,www.daynabrook.com
-84.873988,37.851806,Ag Tourism Venue,Devine's Farm & Corn Maze,"188 Man O War Harrodsburg, KY 40330",Glenn & Martina Devine,,(859) 613-6900,info@devinescornmaze.com,www.devinescornmaze.com
-88.6734401,37.0102176,Ag Tourism Venue,Dossey Vineyards LLC  DBA Purple Toad Winery,"4275 Old US Hwy 45 Paducah, KY 42003",Allen Dossey,,(270) 554-0010,,www.purpletoadwinery.net
-84.9169094,37.9622424,Ag Tourism Venue,"Drake Ridge Farms, Llc","0 Bonds Mill Rd Lawrenceburg, KY 40342",Sam Drake,,(502) 751-8402,samdrakejr@gmail.com,
-84.699025,37.9984803,Ag Tourism Venue,Eckert's-Boyd Orchard,"1396 Pinkard Pike Versailles, KY 40383",Angie Eckert,,(859) 873-3097,angie.eckert@eckerts.com,www.eckerts.com/versailles
-87.9404805,37.0661888,Ag Tourism Venue,Eddy Grove Vineyard,"300 Martin Rd  Princeton, KY 42445",Jenny Franke,,(270) 365-9463,jfranke@medicinemanwines.com,www.medicinemanwines.com
-83.5333791,37.723377,Ag Tourism Venue,Emily's Welcome Inn B&B,"49 Swift Camp Creek Road Campton, KY 41301",Susan Lacy,,(606) 481-1750,susan.lacy@wolfe.kyschools.us,www.emilysbandb.com
-84.4811879,36.7431325,Ag Tourism Venue,End of the Road Farm,"232 West Ridge Marshes Siding, KY 42631",Larry E. King,,,kinglarry@hotmail.com,
-84.6448674,38.1586591,Ag Tourism Venue,Equus Run Vineyards LLC,"1280 Moore's Mill Rd  Midway, KY 40347",Cynthia Bohn,,(859) 846-9463,info@equusrunvineyards.com,www.equusrunvineyards.com
-84.1331782,37.0844462,Ag Tourism Venue,Evening Shade,"2522 W Laurel Rd London, KY 40741",Elizabeth Risner,,(606) 877-2066,erisner5644@gmail.com,
-86.302044,37.92072,Ag Tourism Venue,Fairview Lavender Farm,"3700 Sandy Hill Rd. Webster, KY 40176",Sharon Ballard,,(270) 547-3522,fairviewlavender@gmail.com,www.fairviewlavender.com
-84.4595443,37.9319932,Ag Tourism Venue,Fairyhouse Hall,"3250 Delong Road Lexington, KY 40515",Heather McKeever Haffey,,(843) 323-1174,fairyhousehall@me.com,
-85.6681294,38.2145853,Ag Tourism Venue,Farmington Historic Plantation,"3033 Bardstown Rd Louisville, KY 40205",Rachel Fautz,,(502) 452-9920,farmington@historichomes.org,www.historichomes.org
-86.7006662,36.8651525,Ag Tourism Venue,Federal Grove Farms,"475 E Main Street Auburn, KY 42206",Lee Blythe,,(270) 542-6106,lee@federalgrove.com,www.federalgrove.com
-84.9076881,37.375373,Ag Tourism Venue,First Day Farm,"938 Chelf Ridge Rd Hustonville, KY 40437",Scott Russell,,(270) 566-2303,scottnamy@firstdayfarm.com,www.firstdayfarm.com
-83.5870218,37.5619165,Ag Tourism Venue,Foggy Mountain Mill  Co.,"8881 Hwy 52 East Beattyville, KY 41311",Glenn Kincaid,,(606) 464-3997,glenn.kincaid01@yahoo.com,
-84.0592988,38.3377837,Ag Tourism Venue,Forest Retreat Bed & Breakfast Event Venue,"4179 Maysville Road Carlisle, KY 40311",Allysha Edmond,,(606) 748-4994,Forestretreatbnb@gmail.com,www.forestretreatky.com
-84.3302142,38.6767372,Ag Tourism Venue,Fox Run Environmental Education Center,"PO Box 174 Falmouth, KY 41040",Ame Vanorio,,,foxruneec@gmail.com,www.foxruneec.org
-85.0674516,38.6097865,Ag Tourism Venue,Fox Whistle Farm,"1850 Highway 325 Worthville, KY 41098",Sara Kinney,,(718) 909-2889,sara@skinneypro.com,
-86.4017785,37.1267069,Ag Tourism Venue,Frints Adventure Farm,"1364 Jack Simmons Rd Bowling Green, KY 42101",Ron & Carolyn Frint,,(270) 784-6568,,
-84.2774396,38.3039127,Ag Tourism Venue,Fryman Farm,"417 Mt Carmel Rd Cynthiana, KY 41031",Vickie Fryman,,(859) 987-1758,frymanfarm@att.net,
-84.2806058,37.8956131,Ag Tourism Venue,Full Moon Farm,"269 Combs Ferry Road Richmond, KY 40475",Margaret Gagnon,,,marcy.gagnon@gmail.com,
-86.434521,36.9664157,Ag Tourism Venue,Fuqua Land Co,"980 Browning Road Rockfield, KY 42274",Mike Fuqua,,(270) 796-9159,mfuqua@party1superstore.com,
-84.760711,37.6853381,Ag Tourism Venue,Gabe's Place,"75 Spears Lane Danville, KY 40422",Tom And Pamela Lane,,(859) 583-5279,pamelalane@me.com,
-85.1575322,38.2297152,Ag Tourism Venue,Gallrein Farms,"1029 Vigo Rd  Shelbyville, KY 40065",Milia Hurst,,(502) 633-4849,gallreinfarms@aol.com,www.gallreinfarms.com
-83.0112932,38.3981392,Ag Tourism Venue,Garden Gate Greenhouse,"13806 N State Hwy 7 Grayson, KY 41143",Julie Bush,,(606) 475-9960,gardengate@windstream.net,www.gardengateky.com
-86.0131768,37.0902755,Ag Tourism Venue,Gateway Vineyard/Smith Farm,"26187 Louisville Road Park City, KY 42160",Nathaniel & Tonya Smith,,(270) 749-5082,gatewayvineyard@gmail.com,www.gatewayvineyard.us
-84.7802489,38.6295303,Ag Tourism Venue,"Gatewood Arena, Inc.","4470 Jonesville Rd. Dry Ridge, KY 41035",Paula Gatewood,,(502) 484-5625,gatewoodarena@yahoo.com,gatewoodarena.com
-84.430975,38.941678,Ag Tourism Venue,Generation Hill Winery,"335 Poplar Thicket Rd  Alexandria, KY 41001",Bill or Sherry Buda,,(859) 694-1561,generationhill@hotmail.com,
-85.385052,36.9605736,Ag Tourism Venue,Go Blue Berry Farms,"3105 Independence Ridge Rd. Breeding, KY 42715",John McGlone,,(270) 378-4825,johnmcglone@msn.com,goblueberryfarm.com
-86.3120009,36.972162,Ag Tourism Venue,Grace Pointe Events,"Porter Pike Bowling Green, KY 42103",Patricia Quinn,,(615) 943-7606,Trish@gracepointeevents.com,gracepointeevents.com
-86.7767613,36.9480556,Ag Tourism Venue,Gripshover Family Farm,"641 Woodward Rd Auburn, KY 42206",Ellie Gripshover,,(270) 542-2128,gripshover@aol.com,www.facebook.com/GripshoverFamilyFarm/?ref=bookmarks
-84.3879529,37.5475874,Ag Tourism Venue,Halcomb's Knob LLC,"430 Wallacetown Rd Paint Lick, KY 40461",Deborah Messenger,,(859) 925-9936,halcombsknob@windstream.net,www.halcombsknob.com
-84.72697,37.064098,Ag Tourism Venue,Haney's Appledale Farm,"8350 Hwy W 80 Nancy, KY 42544",Mark & Don Haney,,(606) 636-6148,haneys@haneysappledalefarm.com,www.haneysappledalefarm.com
-87.4280645,37.4157503,Ag Tourism Venue,Hanson Berry Farms,"3178 Eastlawn Rd  Madisonville, KY 42431",Scott Wells,,(270) 322-8110,info@hansonberryfarms.com,www.hansonberryfarms.com
-87.3925036,37.6164881,Ag Tourism Venue,Happy Hollow Farms,"9730 KY 136 W Calhoun, KY 42327",James Murdock,,(270) 499-3774,kale_0000@yahoo.com,
-84.7711464,38.1956773,Ag Tourism Venue,Happy Jack Pumpkin and Produce,"966 Hickman Hill Rd Frankfort, KY 40601",Lee Ann Jones,,(502) 695-7518,lkjones751@gmail.com,www.happyjackspumpkinfarm.com
-84.820538,37.014153,Ag Tourism Venue,Harmony Acres,"2194 Ard Ridge Road Nancy, KY 42544",Steve Vanhorn,,(606) 871-9506,dvanhorn2194@gmail.com,
-84.4725121,37.0873144,Ag Tourism Venue,Heffelfinger Tree Farm,"380 Colo-Grade Rd Somerset, KY 42501",Melissa Heffelfinger,,(606) 219-7989,lissheff@gmail.com,www.facebook.com/HeffelfingerTreeFarm
-85.4962424,38.3615855,Ag Tourism Venue,Hemmer Hill Farm,"7401 Old Zaring Rd Crestwood, KY 40014",Joyce Hemmer Keibler,,(502) 228-3860,joycekeibler@insightbb.com,hemmerhillfarm.com
-84.5056481,37.4196135,Ag Tourism Venue,Hen-Cey Hollow Farm,"3183 Ky Hwy 39 S Crab Orchard, KY 40419",Tracey Miller,,(606) 510-3660,traceyloumiller@gmail.com,HTMARTISANS.COM
-88.5362056,36.9286224,Ag Tourism Venue,Henson Broom Shop & General Store,"1060 St. Rt. 348 East  Symsonia, KY 42082",Richard or Barbara Henson,,(270) 851-8510,brooms@mediacombb.net,www.hensonbrooms.com
-86.2936044,36.7745866,Ag Tourism Venue,Hickory Lane Farm {Need More Acres},"395 Hickory Lane Scottsville, KY 42164",Nathan Howell,,(270) 799-5563,michelle.lifeisgood@gmail.com,www.needmoreacres.com
-83.8635886,38.0141512,Ag Tourism Venue,Hickory Springs Of Montgomery Daylilies,"4410 Mccormick Rd Mt Sterling, KY 40353",Donna Jones,,(859) 498-2371,hickoryspringsofmontgomery@hotmail.com,
-82.8031319,37.891473,Ag Tourism Venue,Hidden Holler Farm,"18 A Hill Lane Stambaugh, KY 41257","Ashley Michelle Meek, DVM",,(606) 793-4540,amichellemusic@gmail.com,
-87.567432,37.7370135,Ag Tourism Venue,Hillcrest Baskets & Greenhouse,"4201 Anthoston-Frog Island Rd  Henderson, KY 42420",Karen O'Nan Martin,,(270) 827-2275,makomartin@att.net,hillcrestbaskets.webs.com
-82.9754653,37.334794,Ag Tourism Venue,Hindman Settlement School,"56 Education Lane Hindman, KY 41822",Jason Brashear,,(606) 785-5475,jbrashear@hindmansettlement.org,www.hindmansettlement.org
-85.6195037,37.4998227,Ag Tourism Venue,Hinton's Orchard & Farm Market,"8361 Campbellsville Rd  Hodgenville, KY 42748",Jeremy And Joanna Hinton,,(270) 325-3854,joanna@hintonsorchard.com,www.hintonsorchard.com
-85.6280898,38.3479962,Ag Tourism Venue,Hiphip Homemade,"6700 Riverway Dr Prospect, KY 40059",Shannon Drabant,,(502) 494-9831,Drabant@me.com,
-83.8888138,36.8664765,Ag Tourism Venue,Historic McNeils Crossing,"200 Ky 1530 Barbourville, KY 40906",David Cornett,,(606) 546-8179,cornettcycles@yahoo.com,
-86.5029617,36.8916561,Ag Tourism Venue,Historic Potter Farm,"1100 Richpond Rd Bowling Green, KY 42104",Greg & Joe Ann Gary,,(270) 782-2309,historicpotter farm@gmail.com,www.historicpotterfarm.com
-85.0186158,38.446702,Ag Tourism Venue,Holy Branch Gourds,"197 Casey Ln Box 16 Bethlehem, KY 40007",Art & Bonnie Lander,,(502) 845-2368,info@holybranchgourds.com,www.holybranchgourds.com
-84.154018,37.570007,Ag Tourism Venue,Homegrown Hideaways,"500 Floyd Branch Rd Berea, KY 40403",Nathan Or Jessa Turner,,(859) 986-3478,jessa@homegrownhideaways.org,www.HomeGrownHideAways.org
-84.535079,38.8139589,Ag Tourism Venue,"Honey Locust Farms, Llc","15100 Madison Pike Morning View, KY 41063",Becky Darnell,,(859) 356-2253,honeylocustfarms@gmail.com,www.honeylocustfarms.com
-85.135368,38.277963,Ag Tourism Venue,Hornback Farms,"6102 Cropper Rd Shelbyville, KY 40065",Pat Hornback,,(502) 461-9005,pmh@shelbybb.net,
-86.418992,36.7234879,Ag Tourism Venue,Horseman's Rest Bed And Breakfast,"314 Hack Brown  Rd Franklin, KY 42134",Sandra Placco,,(270) 586-6660,equine@apex.net,
-86.457005,37.043548,Ag Tourism Venue,Jackson's Orchard & Nursery Inc,"1280 Slim Island Rd Bowling Green, KY 42101",Bill Jackson,,(270) 781-5303,JacksonsOrchard@hughes.net,www.jacksonsorchard.com
-84.3770192,37.9290116,Ag Tourism Venue,Jean Farris Winery & Bistro,"6825 Old Richmond Rd  Lexington, KY 40515",Jeanie O'Daniel,,(859) 263-9463,info@jeanfarris.com,www.jeanfarris.com
-84.6117099,38.3041746,Ag Tourism Venue,Jenkins Goods From The Woods,"605 Sulphur Wells Rd  Georgetown, KY 40324",Annette Jenkins,,,one.shortee@yahoo.com,
-84.2449169,38.2709502,Ag Tourism Venue,Julie's Pumpkins,"1069 Ruddles Mill Rd  Paris, KY 40361",Julie & Dennie Ferrell,,(859) 987-4498,julieferrell@att.net,
-86.6500685,36.8683251,Ag Tourism Venue,Just Piddlin Farm,"10830 S. Morgantown Rd Woodburn, KY 42170",Chip & Jill Willingham,,(270) 542-6769,rwillingham@logantele.com,www.justpiddlinfarm.com
-85.3920811,37.0595344,Ag Tourism Venue,K&A Homestead,"2226 Jones Chapel Road Columbia, KY 42728",Annie Greenwell,,,Annienielsen87@yahoo.com,
-84.9914908,38.2750373,Ag Tourism Venue,Keach Manor,"4701 Lebanon Rd Bagdad, KY 40003",Nathe & Amy Keach,,(502) 607-0262,info@keach.us,www.keach.us
-86.1905424,36.7533781,Ag Tourism Venue,Kentucky Moon Vineyard LLC,"286 Erwin Rd Scottsville, KY 42164",Bob Zoellner,,(270) -,kentuckymoonvineyard@outlook.com,
-82.5196744,38.0054904,Ag Tourism Venue,Kentucky Roots,"9710 N Hwy    3  Louisa, KY 41230",Jerrie Cossett,,(606) 686-2387,logjam@foothills.net,
-86.1263809,37.6846411,Ag Tourism Venue,Kg Farms,"368 Johnny Goodman Ln Cecilia, KY 42724",Kathryn Goodman,,(270) 763-2688,goodmankathryn@hotmail.com,
-87.1901202,37.6947426,Ag Tourism Venue,King's Country Gardens,"6247 Hwy 81  Owensboro, KY 42301",Ella B. & Carl King,,(270) 683-7518,ebking55aol.com,
-84.764774,39.015189,Ag Tourism Venue,Kinman Farms,"4175 Burlington Pike Burlington, KY 41005",Aaron Anderson,,(859) 689-2682,kinmanfarms@aol.com,www.kinmanfarmsfallfest.com
-84.8469408,36.9434568,Ag Tourism Venue,"Lake Cumberland Winery, Inc.","122 Cedar Lane Farm Monticello, KY 42633",Norrie Wake,,(606) 348-5253,norrie@lakecumberlandwinery.com,www.lakecumberlandwinery.com
-84.1095705,38.1495329,Ag Tourism Venue,Lavender Breeze Farm,"343 College Rd. Paris, KY 40361",Veronica Demuro,,(859) 362-2444,ronniedem@gmail.com,
-84.0478303,38.6544098,Ag Tourism Venue,Lavender Hills Of Kentucky Llc,"229 Conrad Ridge Rd  Brooksville, KY 41004",Judy Brothers,,(606) 735-3355,dscaringi@twc.com,www.lavenderhillsofkentucky.com
-84.2529869,38.2097987,Ag Tourism Venue,Lazy Days Farm,"1757 Ruddles Mills Rd  Paris, KY 40361","James, Pam & Ashley Cundiff",,(859) 987-6932,,
-84.340637,38.991928,Ag Tourism Venue,Little Rock Farm,"2802 Ten Mile Rd  Camp Springs, KY 41059",Stephanie Zink,,(859) 635-9668,lrf@campsprings.com,
-84.8755907,38.0929396,Ag Tourism Venue,Lovers Leap Vineyards & Winery,"1180 Lanes Mill Road Lawrenceburg, KY 40342",Brian Sivinski,,(502) 839-1299,brian@loversleapwine.com,www.loversleapwine.com
-86.1996259,37.1555438,Ag Tourism Venue,Mammoth Cave Transplants,"5394 Brownsville Rd  Brownsville, KY 42210",Janet Dennison,,(270) 597-2533,jandave439@windstream.net,www.mammothcavetransplants.com
-87.7039056,37.7433757,Ag Tourism Venue,Mattingly Berry Patch,"5241 Greenlick Rd Corydon, KY 42406",Jim & Cathy Mattingly,,(270) 533-6125,catmattingly@aol.com,
-83.987184,38.6302012,Ag Tourism Venue,McDowell Farm Salsa,"2261 Bridgeville Rd  Germantown, KY 41044",Carla McDowell,,(606) 728-2433,carla@mcdowellfarmssalsa.com,www.mcdowellfarmssalsa.com
-85.3656417,37.7823495,Ag Tourism Venue,McIntyre's Winery & Berries LLC,"531 McIntyre Lane Bardstown, KY 40004",Tommy McIntyre,,(502) 507-3264,mcintyreswinery@yahoo.com,www.mcintyreswinery.com
-83.9084458,38.4376613,Ag Tourism Venue,McLeans Aero-Fresh Fruit,"4085 Ewing Rd  Ewing, KY 41039",Michael McLean,,(606) 267-6511,mlmclean55@yahoo.com,
-85.404115,38.3401305,Ag Tourism Venue,"Meadowview Farm & Natural Habitat Gardens, LLC","2005 Meadowview Dr Crestwood, KY 40014",Lori L Belling,,,mfnhgllc@gmail.com,www.meadowviewfarmandgarden.com
-84.8420736,38.6680046,Ag Tourism Venue,Michels Family Farm,"4275 KY Hwy 1316 Sparta, KY 41086",Jeff Michels,,(859) 643-2511,,
-85.8010305,37.6968177,Ag Tourism Venue,Mink & Walters Pumpkin Patch,"2270 Springfield Rd  Elizabethtown, KY 42701",Robbie Walters,,(270) 360-9455,robbie@walterscabinets.com,
-87.159817,37.710506,Ag Tourism Venue,Misty Meadow Winery,"2743 Keller Rd Owensboro, KY 42301",Don & Janet Keller,,(270) 683-0361,kellerjanet@bellsouth.net,
-85.0828388,38.1726678,Ag Tourism Venue,Misty Meadows Farm,"1156 Buzzard Roost Road Shelbyville, KY 40065",Randal Dawson,,(502) 829-5489,jrdawson@shelbybb.net,
-87.6409715,37.7969143,Ag Tourism Venue,Mldftrinity,"15615 Griffing Graves Creek Rd Henderson, KY 42420",Melissa Fambrough,,(270) 823-6872,mdftrinity1@yahoo.com,
-87.6902886,37.5178218,Ag Tourism Venue,Mooney Farms,"3108 Hwy 983 Dixon, KY 42409",Ladon Mooney,,(270) 639-5808,rmoonwcrd@live.com,
-85.2693535,38.4527476,Ag Tourism Venue,"Morgan's Run, LLC","537 Dawkins Lane Sulphur, KY 40070",Cathy D. McCann,,(502) 743-0300,Cdmccann@aol.com,
-87.8613567,37.1660626,Ag Tourism Venue,Morning View Farms,"2562 Highway 293 N Princeton, KY 42445",Carrie Tarr-Janes,,(270) 963-8351,morningview4182@gmail.com,
-84.0180034,37.9834587,Ag Tourism Venue,Mt. Folly Farm,"3043 Schollsville Rd Winchester, KY 40391",Rachel Norton,,,laura@mtfollyfarm.com,
-85.1399171,38.3006977,Ag Tourism Venue,Mulberry Orchard,"1330 Mulberry Pike  Shelbyville, KY 40065",Matt or Amanda Gajdzik,,(502) 220-7516,amanda.gajdzik@gmail.com,www.MulberryOrchardKY.com
-85.2565762,37.5759308,Ag Tourism Venue,Myrtledene Bed & Breakfast,"370 N. Spalding Avenue  Lebanon, KY 40033",James Spragens,,(270) 692-2223,myrtledene@windstream.net,www.myrtledene.com
-84.7229138,37.8405614,Ag Tourism Venue,Nature's Farm And Orchard,"4400 Lexington Rd Harrodsburg, KY 40330",Jen & Eric Cowden,,(859) 285-6465,naturesfarmorchard@gmail.com,www.naturesfarmandorchard.com
-84.364947,38.991403,Ag Tourism Venue,Neltner Farm LLC,"6922 Four Mile Melbourne, KY 41059",Kevin Neltner,,(859) 635-3636,neltnersfarm@gmail.com,www.neltnersfarm.com
-85.2879067,38.6553929,Ag Tourism Venue,Nixon Farms,"1066 Palmyra Road Bedford, KY 40006",Tammy Nixon,,(502) 255-3056,t.nixon@dowcorning.com,
-83.1932284,37.24954,Ag Tourism Venue,Noble Creations,"175 Whitaker Hollow Hazard, KY 41701",Sabrina Noble,,,sab.nob@icloud.com,
-85.766877,38.256831,Ag Tourism Venue,Old 502 Winery,"120 S 10th St Louisville, KY 40202",Pam Leet,,(502) 540-5650,info@old502.com,www.old502.com
-85.2153661,38.3650478,Ag Tourism Venue,Old Blue Ribbon Farm,"2283 Ballardsville Road Eminence, KY 40019",Anita Jackson,,,details@obrfarm.com,
-84.7545717,37.6347666,Ag Tourism Venue,Old Crow Farm & Winery,"471 Stanford Rd Danville, KY 40422",Andre Brousseau,,(859) 236-1808,arbiii7@gmail.com,www.oldcrowinn.com
-85.7523246,38.2564708,Ag Tourism Venue,Old Forester Distilling Co.,"117 & 119 West Main Street Louisville, KY 40202",Olivia Reibel,,(502) 553-0374,caroline_keller@b-f.com,oldforester.com
-85.7641013,38.2429908,Ag Tourism Venue,Old Louisville FarmWorks Market,"Louisville, KY 40203",Russ  Gritton,,(502) 343-8251,rgritton@bardstowncable.net,
-84.5739721,37.5996052,Ag Tourism Venue,Overman's Bluegrass Fruits & Vegetables,"119 Long Branch Dr Lancaster, KY 40444",Kirby Overman,,(859) 792-8237,j.kirbyoverman@gmail.com,
-84.7869113,38.5023615,Ag Tourism Venue,"Papina Legacy Winery, Llc     Dba:  Elk Creek Vineyards","150 Hwy 330 Owenton, KY 40359",Karin Papina,,(502) 484-0005,kwpapina@gmail.com,www.elkcreekvineyards.com
-86.2838957,37.1696928,Ag Tourism Venue,Paquin Farms & French Fort Vineyards,"499 Logan Road Brownsville, KY 42210",Logan Paquin,,(270) 597-9593,loganpaquin2@gmail.com,www.frenchfortvineyards.com
-83.8400627,38.4501035,Ag Tourism Venue,Paradox Farms Bed & Breakfast LLC,"2555 Nepton Rd Ewing, KY 41039",Charles & Carole Hunt,,(606) 267-9003,paradox@altiusbb.com,www.paradoxfarms.com
-86.8988483,37.9252757,Ag Tourism Venue,PATE FARM,"1695 4th St Lewisport, KY 42351",Karl Pate,,(270) 295-3568,karlpate@tds.net,
-84.272921,36.757643,Ag Tourism Venue,Patrickâ€™S Point Farm,"2343 River Rd Williamsburg, KY 40769",Dennis Patrick,,(606) 515-6225,patrickspointfarm@gmail.com,
-84.8151079,37.7444607,Ag Tourism Venue,"Peavler's Greenhouse, Inc.","921 Bellows Mill Rd  Harrodsburg, KY 40330",Pat Peavler,,(859) 734-4714,peavler@bellsouth.net,
-86.1899031,37.0497169,Ag Tourism Venue,Pelly's Farm Fresh,"1085 Hays Smiths Grove Rd  Smiths Grove, KY 42171",Esli Pelly,,(270) 563-6851,pellysfarmfresh@ymail.com,www.PellyFarm.com
-85.285239,37.3164541,Ag Tourism Venue,Pine View Harvest Farm,"2844 Dry Creek Road Elk Horn, KY 42733",Jonathan Harmon,,(606) 787-6957,Jonathan.Harmon9626@Gmail.com,
-85.021458,37.6308512,Ag Tourism Venue,Poorhouse Sorghum,"382 Poorhouse Rd Gravel Switch, KY 40328",Jimmy Elliott,,(859) 332-7728,jimmyelliott92@yahoo.com,
-85.3951633,36.7407525,Ag Tourism Venue,Porcupine Lodge Farm LLC,"610 Howard Davidson Road Burkesville, KY 42717",Dianne Hayward,,(270) 433-2446,haywards@duo-county.com,
-84.462054,38.846834,Ag Tourism Venue,Poverty Hollow Farm,"14691 Decoursey Pike  Morning View, KY 41063",Todd & Nancy Kloentrup,,(859) 356-2304,phfmvky@fuse.net,
-85.4924552,37.7870162,Ag Tourism Venue,Preservation Distillery,"426 Sutherland Road Bardstown, KY 40004",Lisa Wicker,,,lbwicker@gmail.com,
-82.9582284,38.72091,Ag Tourism Venue,R & K Farm,"305 Berry Garden Lane South Shore, KY 41175",Kelly Boyles,,(606) 932-9558,mertybeth@outlook.com,
-84.5949859,37.6458695,Ag Tourism Venue,Red Barn Farm,"2198 Lexington Rd  Lancaster, KY 40444",Vanessa Ruda,,(859) 948-4760,vanessa.ruda@jessamine.kyschools.us,
-83.5305927,37.0124501,Ag Tourism Venue,Red Bird Mission Food Security Project And Farmers' Market,"70 Queendale Center Beverly, KY 40913",Travis Adkins,,(606) 598-0520,tadkins@rbmission.org,
-84.2835361,38.8508465,Ag Tourism Venue,Red Ridge Farm,"169 Old Stepstone Rd California, KY 41007",Tommy Thompson,,(859) 992-5712,redridgefarmky@gmail.com,
-84.3414868,38.2910997,Ag Tourism Venue,Reed Valley Orchard,"239 Lail Ln Paris, KY 40362",Trudie Reed,,(859) 987-6480,info@reedvalleyorchard.com,www.reedvalleyorchard.com
-86.3885484,36.8472344,Ag Tourism Venue,Reid's Livery Winery,"430 Nealy Rd Alvaton, KY 42122",Rex & Diane Reid,,(270) 843-6330,diane7800@att.net,www.reidsliverywinery.com
-87.041853,37.790165,Ag Tourism Venue,Reid's Orchard,"4818 HWY 144  Owensboro, KY 42303",Billy Reid,,(270) 685-2444,BHR117@aol.com,www.reidorchard.com
-84.9397738,36.8511155,Ag Tourism Venue,Richardson Farms Wedding Barn,"835 Beechboard Rd Monticello, KY 42633",Cindy Richardson,,(606) 307-3403,richardsonfarmsweddingbarn@gmail.com,
-87.9197356,36.9110491,Ag Tourism Venue,Rivendel Farms,"498 Trigg Furnace Rd Cadiz, KY 42211",Ginger Hutchings,,(270) 522-9006,rivendelfarms@gmail.com,www.rivendelfarms.com
-83.7747538,38.6433285,Ag Tourism Venue,River Valley Agritourism Alliance,"800 U.S. 68  Maysville, KY 41056",Sara Swope,,,saraswope65@yahoo.com,www.rivervalleyagritourismalliance.com
-85.2047497,38.6604836,Ag Tourism Venue,River Valley Winery,"1279 Mound Hill Rd P.O. Box 178 Carrollton, KY 41008",Vicky Georgiev,,(502) 732-8466,rivervalleywinery@kih.net,www.rivervalleywinery.com
-86.4190843,37.0166114,Ag Tourism Venue,Riverbend Blueberry Event Barn & Market,"999 Beech Bend Road Bowling Green, KY 42101",Daniel Reynolds,,(270) 202-7170,dan@reynoldscorporation.com,
-86.2628604,37.4577866,Ag Tourism Venue,RMR Farms LLC,"324 Grant Road Leitchfield, KY 42754",Mark Robbins,,(505) 767-3419,Rmrfarms2014@gmail.com,www.facebook.com/The-Barn-at-RMR-Farms-2039047283088698/
-86.20767,37.918832,Ag Tourism Venue,Roberts Family Farm,"125 Kennedy Rd Guston, KY 40142",Kevin Roberts,,(270) 422-2361,rffarm@bbtel.com,robertsfamilyfarmky.com
-84.335622,37.7388336,Ag Tourism Venue,Rolling Acres Farm Pumpkin Patch 'N' More LLC,"1169 Goggins Lane Richmond, KY 40475",Annna Winkler,,(859) 314-8806,annawink@aol.com,
-83.9948854,37.1008974,Ag Tourism Venue,"Rooster Ridge Farm,Llc.","195 Reed Road London, KY 40741",Ivan Reed,,,reedsroosterridgefarm@gmail.com,
-83.4196845,37.7714828,Ag Tourism Venue,Rose Farm,"851 Johnson Fork Rd Campton, KY 41301",Lynda Rose,,(606) 662-6333,rosefarm@mrtc.com,
-83.851306,37.6651055,Ag Tourism Venue,Route 52 Moonshine,"465 Beattyville Road Irvine, KY 40336",Howard Arvin,,(859) 608-4100,HOWARDARVIN@ME.COM,
-86.5786932,36.6804605,Ag Tourism Venue,Ruby Branch Farms,"780 Lake Spring Rd. Franklin, KY 42134",Laney Snider,,(270) 776-4672,rubybranchfarms@gmail.com,www.rubybranchfarms.com
-84.3946218,38.8607352,Ag Tourism Venue,Rugged Cross Farm,"980 Clay Ridge Rd Alexandria, KY 41001",Gary Downs,,(859) 908-0606,ruggedcrossfarm@yahoo.com,
-83.9142695,38.6037583,Ag Tourism Venue,S.K.Y. Farm,"4128 Brandywine Rd Maysville, KY 41056",Sande Yelton,,(859) 250-1510,Dsyelton@insightbb.com,
-84.0289787,36.7489766,Ag Tourism Venue,Sally Gap Punkin Patch,"445 Louden Rd. Williamsburg, KY 40769",Charline Meadors,,(606) 524-4722,Charline_Rich_2001@Hotmail.com,
-84.0481772,36.9283409,Ag Tourism Venue,Salt Lick Farms Llc,"429 Salt Lick Rd Corbin, KY 40701",Samantha Mitchell,,(606) 344-4397,samantha.mitchell@me.com,www.saltlickfarm.com
-82.6033376,38.114427,Ag Tourism Venue,Savage Farms,"10251 North Highway 3 Louisa, KY 41230",Keith Moore,,(606) 686-1120,savagefarmsky@outlook.com,
-85.0695733,37.2933234,Ag Tourism Venue,Serenity Hollow Farm,"3225 Woods Creek Rd Liberty, KY 42539",Andrew Alonzo,,(606) 787-2778,ATAlonzo@windstream.net,
-85.2572548,38.2053209,Ag Tourism Venue,Shelby Christmas Tree Farm and Nursery,"175 McDaniel Road Shelbyville, KY 40065",Vivek Sarin,,(502) 550-7302,vivek@shelbyindustries.com,www.shelbychristmastrees.com
-84.3393009,37.436565,Ag Tourism Venue,Sigmon Farms,"477 Rimmel Cemetery Rd  Mt Vernon, KY 40456",Bill Sigmon,,(606) 256-2781,leanngarrisonky@gmail.com,
-84.031798,37.8830044,Ag Tourism Venue,Slate Woods Farm,"1070 Right Angle Rd.  Winchester, KY 40391",Kathy Jones,,(859) 749-9182,slatewoodsfarm@gmail.com,capriella.com/slatewoods/
-84.589606,38.893986,Ag Tourism Venue,Smith Genetics,"11868 Banklick Road Walton, KY 41094",Lisa Naive,,(859) 356-0150,ldnaive@gmail.com,
-83.1982346,38.3575894,Ag Tourism Venue,"Smokey Valley Farm, Inc.","5183 State Highway 2  Olive Hill, KY 41164",Robert L. Coleman,,(606) 286-6588,svf1@kih.net,www.smokeyvalleyfarm.com
-83.1982346,38.3575894,Ag Tourism Venue,Smokey Valley Horse,"5183 St Hwy 2 Olive Hill, KY 41164",Max Hammond,,(606) 286-6588,maxhammond2@gmail.com,www:smokeyvalleyfarm.com
-84.0432519,37.6215479,Ag Tourism Venue,Snug Hollow Farm B & B,"790 McSwain Branch  Irvine, KY 40336",Barbara Napier,,(606) 723-4786,info@snughollow.com,www.snughollow.com
-86.4396068,36.9965943,Ag Tourism Venue,"SoKY Marketplace, Inc.","Bowling Green, KY 42101",Courtney McBaen,,(270) 202-0256,sokymarketplace@gmail.com,www.sokymarketplace.org
-85.1768689,38.1134169,Ag Tourism Venue,Southville Spitters,"8257 Hempridge Rd  Shelbyville, KY 40065",June Griest,,(502) 738-0233,junegriest@yahoo.com,
-84.9501618,37.6174054,Ag Tourism Venue,Spring Clover Farm & Bluegrass Wedding Barn,"3050 Mitchellsburg Rd Danville, KY 40422",Janna DiDomenico,,(859) 605-9086,info@bluegrassweddingbarn.com,www.bluegrassweddingbarn.com
-84.9501618,37.6174054,Ag Tourism Venue,Spring Clover Farm & Bluegrass Wedding Barn,"3050 Mitchellsburg Rd Danville, KY 40422",Steve DiDomenico,,(859) 605-9086,info@bluegrassweddingbarn.com,www.bluegrassweddingbarn.com
-85.3011172,37.8694289,Ag Tourism Venue,Springhill Winery,"3205 Springfield Road  Bloomfield, KY 40008",Eddie O'Daniel,,(502) 252-9463,wineshop@springhillwinery.com,www.springhillwinery.com
-84.4167551,37.9162438,Ag Tourism Venue,Stable Meadows,"2590 Jacks Creek Pike Lexington, KY 40515",Angela Spiers,,(859) 948-8644,spiers.angela@gmail.com,www.stablemeadows.com
-84.0698633,37.9984944,Ag Tourism Venue,Staton Ridge Farm,"455 Davis Lane Winchester, KY 40391",Julie Staton,,(859) 808-1317,julielstaton@yahoo.com,
-84.8395014,38.6600872,Ag Tourism Venue,Steepleview Farm,"10285 Hwy 127 North Sparta, KY 41086",Marc Carey,,(859) 643-3339,marc@steepleviewfarm.net,
-85.0885667,37.0561788,Ag Tourism Venue,Stephen's Nursery & Fresh Produce,"588 John Street  Russell Springs, KY 42642",Tim Stephens,,(270) 343-2295,,
-87.4429849,37.826921,Ag Tourism Venue,Stone Hill Honey,"6005 Hatchett Mill Rd  Spottsville, KY 42458",Betsy Stone,,(270) 869-5023,bpstoneky@bellsouth.net,www.stonehillhoney.com/home
-84.4193085,38.7540435,Ag Tourism Venue,"Stone House Farms, LLC","2103 Greenwood Portland Rd Demossville, KY 41033",Gary Turney,,,geturney@gmail.com,www.stonehousevenue.com
-82.8282224,38.4898025,Ag Tourism Venue,Stoneacres Farm,"140 Stone Cabin Lane Argillite, KY 41121",Sheryl Stone,,(606) 473-0433,samsheryl@windstream.net,
-84.2946539,37.7478572,Ag Tourism Venue,Stoney Oaks Farm,"2345 Richmond, KY 40475",Bobby Davis,,(859) 740-1681,nettiedavis18@gmail.com,
-83.9496034,38.5149125,Ag Tourism Venue,Sunflower Sundries,"5021 Dividing Ridge Mt Olivet, KY 41064",Jennifer Gleason,,(606) 763-6827,jennifer@sunflowersundries.com,www.sunflowersundries.com
-85.508981,38.151178,Ag Tourism Venue,Sunny Acres Farm,"6516 Echo Trail Louisville, KY 40299",Tommee Clark,,(502) 727-9536,tommeeclark88@gmail.com,www.sunnyacresfarmky.com
-84.2969876,37.571157,Ag Tourism Venue,Sustainable Berea,"199 Adams St  Berea, KY 40403",Cheyenne Olson,,(859) 985-1689,info@sustainableberea.org,www.info@sustainableberea.org
-85.3986734,38.2001343,Ag Tourism Venue,Swallow Rail Farm,"2340 Connor Station Rd. Simpsonville, KY 40067",Jeneen Wiche,,(502) 722-2997,jwiche@shelbybb.net,www.SwallowRailFarm.com
-83.1324,37.787496,Ag Tourism Venue,Sweet Dreams Farm,"Buck Branch Road Salyersville, KY 41465",Charles Taulbee,,(606) 349-7966,Cetaulbee@gmail.com,
-84.4450792,37.9094974,Ag Tourism Venue,Talon Winery,"7086 Tates Creek Rd Lexington, KY 40515",Lauren Manuel Manuel,,(859) 971-9797,info@talonwine.com,www.talonwine.com
-85.7786716,36.9160749,Ag Tourism Venue,Talotam Hollow,"108 Kino- Eighty Eight Rd Eighty Eight, KY 42130",Susan Or Skip Peek,,(270) 678-2913,speek88ky@yahoo.com,
-86.203581,37.983769,Ag Tourism Venue,The Barn at Southern Grace,"325 Kirchdorfer Rd Brandenburg, KY 40108",Theresa Padgett,,(270) 422-7974,theresa@southerngracebb.com,www.thebarnatsoutherngrace.com
-82.7815527,38.33536,Ag Tourism Venue,The Blackhorse Farm,"18517 State Route 854 Rush, KY 41168",Jessica Lucas-Adkins,,(606) 922-4853,theblackhorsefarm@yahoo.com,
-84.2373953,37.8471357,Ag Tourism Venue,The Blue Heron Retreat Center And B&B,"270 East Prong Road Richmond, KY 40475",Liz Huffman,,(859) 527-0186,blueheronbb@aol.com,Blueheronretreat.com
-84.0993318,38.6035479,Ag Tourism Venue,The Country Lodge At Sabbath Song Farm,"1331 Toadvine Rd Brooksville, KY 41004",Wes & Carolyn Boatman,,(606) 735-9914,wboatman@isoc.net,sabbathsongfarm.com
-84.4079891,37.6168759,Ag Tourism Venue,The Denny House,"5958 Old Railroad Grade Rd. Paint Lick, KY 40461",Vicky Abrams,,(859) 925-4554,stay@dennyhouse.com,www.dennyhouse.com
-84.6008093,39.0140872,Ag Tourism Venue,The Dixie Farmers' Market,"Erlanger, KY 41018",Jenifer Megerle,,(859) 727-2525,jenifer.megerle@cityoferlanger.com,
-84.2753148,38.1940402,Ag Tourism Venue,The Farm at Landworks,"246 Hume Bedford Rd Paris, KY 40361",Lynne & Andrew Perraut,,(859) 987-1266,info@thefarmatlandworks.com,www.thefarmatlandworks.com
-84.4483685,37.8935902,Ag Tourism Venue,The Farm On Tates Creek,"7667 Tates Creek Lexington, KY 40515",Donna Horn,,,dho10682@aol.com,
-83.7836403,37.8358325,Ag Tourism Venue,The Highlands,"1100 Pumpkin Hollow Rd Stanton, KY 40380",Bill Gordon,,,whg1225@msn.com,HighAdventureWildernessSchool.com
-84.804853,37.6002262,Ag Tourism Venue,The Hitchin' Post,"1766 Stewarts Lane Junction City, KY 40440",Stefanie Cocanougher,,(859) 583-7485,Want2gethitched@yahoo.com,
-85.9597677,36.9047317,Ag Tourism Venue,The Homestead On Rose Creek,"141 Rose Creek Rd. Glasgow, KY 42141",Angela Jones,,(270) 590-2097,rosecreekcreations@yahoo.com,www.homesteadonrosecreek.com
-85.277763,38.5626677,Ag Tourism Venue,"The Little Kentucky River Winery, LLC","3289 Hwy 421 South  Bedford, KY 40006",Teresa Schnell Weyler,,(502) 437-9463,tweyler@gmail.com,www.the littlekentuckyriverwinery.com
-84.5869197,39.0307609,Ag Tourism Venue,The Nature Academy,"152 Rossmoyne Ave Crestview Hills, KY 41017",Richard Detzel,,(859) 331-5345,natureacad@fuse.net,TheNatureAcademyInc.com
-85.8791398,37.5734106,Ag Tourism Venue,The Place At Gilead,"495 Gilead Church Road Glendale, KY 42740",Michelle Edwards,,(270) 763-3966,theplaceatgilead@gmail.com,www.theplaceatgilead.com
-85.9128646,37.6966423,Ag Tourism Venue,The Pumpkin Wagon,"1507 Saint John Rd Elizabethtown, KY 42701",Teri Thomas,,(270) 401-3865,terileigh85@gmail.com,
-88.1688972,37.0155791,Ag Tourism Venue,"The Tall Oaks Ranch,LLC","2113 Chestnut Oak Road Kuttawa, KY 42055",Cynthia Kauffman & Robert Gilmore,,(270) 388-2434,ckauf49@aol.com,N/A
-86.2775063,36.8707277,Ag Tourism Venue,The View At Conner Acres,"9015 Old Greenhill Road Alvaton, KY 42122",Melanie Renfrow,,(270) 792-8298,MelanieRenfrowRN@aol.com,
-84.810799,38.1131342,Ag Tourism Venue,The Woodford Reserve Distillery,"7855 McCracken Pike Versailles, KY 40383",Dee Ford,,(859) 879-1977,ashleigh_pavelek@b-f.com,www.woodfordreserve.com
-85.2885355,38.248968,Ag Tourism Venue,Thistle Down Farm Llc,"565 Hebron Road Shelbyville, KY 40065",Paula Or Bill Koch,,,thistledownfarmllc@gmail.com,
-87.198049,37.720206,Ag Tourism Venue,Thomas Aquafarms,"4541 Wayne Bridge Road Owensboro, KY 42301",Eric Thomas,,(270) 903-0338,Thomasaquafarms@gmail.com,www.ThomasAquafarms.com
-85.9319014,37.6627253,Ag Tourism Venue,Thomas Dairy Farm And Market,"4625 Leitchfield Rd Cecilia, KY 42724",Walker Thomas,,(270) 401-5461,thomasfarmandmarket@gmail.com,www.thomasdairyfarmandmarketky.com
-87.6555507,36.6577842,Ag Tourism Venue,Three Daughters Farm & Vineyard,"224 E Cross Street Lafayette, KY 42254",Kylee Thatcher,,(623) 910-6775,Kythatch@gmail.com,
-84.7164057,38.2364602,Ag Tourism Venue,"Three Horses Vineyard & Winery, LLC","292 Pea Ridge Rd Stamping Ground, KY 40379",Blanche Overton,,,overtonb01@gmail.com,threehorsesvineyard.com
-83.6790005,38.3292556,Ag Tourism Venue,Three Silos,"4778 Hillsboro Rd Hillsboro, KY 41049",Andrew E. Mitchell,,(606) 782-0236,andrew0236@yahoo.com,www.threesilosbarn.com
-86.5280026,36.8191146,Ag Tourism Venue,Toodlebug Farm,"1521 Cedar Bluff Rd Woodburn, KY 42170",Tina Harris,,(270) 320-8300,teamharris03@gmail.com,https://www.facebook.com/groups/ToodleBugFarm/
-83.6752209,37.709488,Ag Tourism Venue,Trails End,"342 Trentsville Rd  Campton, KY 41301",Carolyn Stevens,,(606) 668-3927,carolyn_stevens_2001@yahoo.com,
-83.9979834,37.430364,Ag Tourism Venue,Truett's Pumpkin Patch,"4172 Hwy 2003 Mckee, KY 40447",Tim Truett,,(606) 364-3755,tim.truett@jackson.kyschools.us,
-86.850005,36.8406077,Ag Tourism Venue,Turner Valley Produce,"2575 Bowling Green Road Russellville, KY 42276",Clay Turner,,(270) 726-3983,turnervalley2575@hotmail.com,
-82.8687949,38.374199,Ag Tourism Venue,Valley Of Hope Farm,"866 Joe Branch Road Grayson, KY 41143",Milissia Owens,,(606) 475-1924,vvalleyofhopefarm@windstream.net,
-86.6560172,37.3218382,Ag Tourism Venue,Van Burens Market,"1655 Dexterville Banock Road Morgantown, KY 42261",Joshua Gilpin,,(502) 974-9882,jgilpin754@gmail.com,vanburensmarket.com
-84.6392539,38.842294,Ag Tourism Venue,Verona Vineyards,"13815 Walton Verona Road  Verona, KY 41092",Peggy Payne Montgomery,,(859) 485-3544,info@veronavineyards.com,www.veronavineyards.com
-85.2628943,37.7458049,Ag Tourism Venue,Village Green Wholesale Nursery,"4251 Bloomfield Rd. Springfield, KY 40069",Kim Fritz,,(502) 460-0764,villagegreenwholesalenursery@yahoo.com,villagegreenwholesalenursery.com
-84.6840955,37.3074376,Ag Tourism Venue,Wadelyn Ranch Distilling LLC/ Wadelyn Ranch,"383 Clydesdale Road Waynesburg, KY 40489",Thomas Daniels,,(606) 875-9702,wadelyn.ranch@gmail.com,wadelynranchdistilling.com
-82.2462699,37.5877475,Ag Tourism Venue,Walker's Family Farms,"248 Clyde Hankins Drive Hardy, KY 41531",David Walker,,(606) 353-7333,djmewalker@bellsouth.net,N/A
-86.2666463,36.6697475,Ag Tourism Venue,Walkup Farms,"549 Travelstead Road Adolphus, KY 42120",Russ Walkup,,(270) 622-8130,rwalkup@nctc.com,
-85.2640492,38.1264285,Ag Tourism Venue,"Walnut Cliff Farms, LLC","6406 Zaring Mill Rd Shelbyville, KY 40065",Tom Abbott,,,tsapot@aol.com,
-85.1979051,38.1323529,Ag Tourism Venue,Walnut Grove Farm,"5970 Mt Eden Rd  Shelbyville, KY 40065",Leon Swarts,,(502) 750-0955,leon@walnutgrovefarm.info,www.walnutgrovefarm.info
-82.6504625,37.9238446,Ag Tourism Venue,Ward Family Farms,"6026 Hwy. 1690 Louisa, KY 41230",Daniel Ward,,(606) 483-1600,singlefootinward@gmail.com,
-84.5890266,38.2072452,Ag Tourism Venue,Ward Hall Preservation Foundation,"1782 Frankfort Road Georgetown, KY 40324",Tommy Druen,,(502) 863-5356,druen2004@yahoo.com,www.wardhall.org
-84.773392,37.601315,Ag Tourism Venue,Warrenwood Manor,"3044 Us Highway 127 S Danville, KY 40422",Brittney Adams,,(859) 583-3953,info@warrenwoodmanor.com,www.warrenwoodmanor.com
-85.1827305,37.0270055,Ag Tourism Venue,Wheat Farm,"1081 Acree Rd Russell Springs, KY 42642",Janet Wheat,,(270) 866-5492,,
-87.9360133,37.6633909,Ag Tourism Venue,White Buck Vineyards & Winnery,"1800  U.S. Hwy 60 W Morganfield, KY 42437",W. Allen or Carla White,,(270) 389-1285,whitebuckwines@att.net,www.whitebuckwine.com
-85.6240798,37.9845546,Ag Tourism Venue,Wight-Meyer Vineyard & Winery,"340 Meyer Drive  Shepherdsville, KY 40165",Jim Wight,,(502) 921-0267,jim@wight-meyervineyards.com,www.wight-meyervineyards.com
-83.8285333,36.7884194,Ag Tourism Venue,Wild Wood Farms,"169 Gravy Branch Road Artemus, KY 40903",Kristopher Hubbard,,(160) 654-6963,wildwoodfarmsartemus@gmail.com,
-84.7198462,37.9783376,Ag Tourism Venue,Wildside Winery,"5500 Troy Pike Versailles, KY 40383",Neil Vasilakes,,(859) 879-3982,neil@wildsidewinery.com,www.wildsidewinery.com
-84.8582813,37.1054397,Ag Tourism Venue,Wilson's Cedar Point Farm,"66 Garfield Tarter Rd  Nancy, KY 42544",Joel Wilson,,(606) 305-8762,cedarpointfarm@aol.com,www.wilsonscedarpointfarm.com
-85.0720323,38.2467072,Ag Tourism Venue,Windy Ridge,"5935 Vigo Road Bagdad, KY 40003",Rhonda Graves,,(502) 352-3659,windyridgeqh@hotmail.com,www.facebook.com/search/top/?q=windy%20ridge%20ameraucanas
-82.8634282,38.6130893,Ag Tourism Venue,Wireman's Greenhouse/Wireman Family Farm,"881 Ohio River Road Greenup, KY 41144","Jeff, Melissa Or Ashley Wireman",,(606) 923-7631,missy.wireman@greenup.kyschools.us,
-85.4772768,38.4651952,Ag Tourism Venue,Woodland Farm,"4716 Greenhaven Ln Goshen, KY 40026",Stephanie Tittle & Kristopher Kelley,,(502) 303-4852,wfarmgarden@gmail.com,www.woodlandfarm.com
-88.6662713,37.0040065,Ag Tourism Venue,Wurth Farms,"1720 S Friendship Rd Paducah, KY 42003",Alesia Grief,,(270) 554-1403,wurthfarms@comcast.net,wurthfarms.net
-85.463569,38.336927,Ag Tourism Venue,Yew Dell Botanical Gardens,"6220 Old LaGrange Rd Crestwood, KY 40014",Jackie Gulbe,,(502) 241-4788,jackieg@yewdellgardens.org,www.YewDellGardens.org
-82.817858,38.532532,Ag Tourism Venue,Imel's Greenhouse,"2836 State Route 1 Greenup, KY 41144",Kenneth Imel,,(606) 473-1708,hjiery@live.com,
-86.2185953,36.7539191,Educational Greenhouse,Allen County High School,"1545 Bowling Green Rd, Scottsville, KY 42164",Nikki Towe,Ag Teacher,(270) 618-0384,nikki.towe@allen.kyschools.us,
-88.9874563,37.0669876,Educational Greenhouse,Ballard Memorial High School,"3561 Paducah Rd, Barlow, KY 42024",Dana Rohrer,,(270) 665-9400 ext. 2401,dana.rohrer@ballard.kyschools.us,
-84.2547683,38.207091,Educational Greenhouse,St. Mary School,"1121 Main St, Paris, KY 40361",Lucy Marsh,Principal,(859) 987-3815,lmarsh@cdlex.org,
-86.4243868,37.7547654,Educational Greenhouse,Breckinridge County High School,"2019 US-60, Harned, KY 40144",Brad Davis,Ag Teacher,(270) 756-3080,brad.davis@breckinridge.kyschools.us,
-88.9322855,36.8334363,Educational Greenhouse,Carlisle County High School,"4557 KY-1377, Bardwell, KY 42023",Michelle Trevathan,,,michelle.trevathan@carlisle.kyschools.us,
-85.1567903,38.6830769,Educational Greenhouse,Carroll County High School,"1706 Highland Ave, Carrollton, KY 41008",Mackenzie Wright,Ag Teacher,(502) 732-7075,mackenzie.wright@carroll.kyschools.us,
-82.9465007,38.3280146,Educational Greenhouse,Carter County Schools,"228 S. Carol Malone Blvd, Grayson, KY 41143",Ronnie Dotson,Superintendent,(606) 474-6696 ext. 20900,ronnie.dotson@carter.kyschools.us,
-87.4914455,36.8796697,Educational Greenhouse,Christian County High School,"220 Glass Ave, Hopkinsville, KY 42240",Olivia Clark,Ag Teacher,(270) 887-7055,olivia.clark@christian.kyschools.us,
-88.0895598,37.3298261,Educational Greenhouse,Crittenden County High School,"519 1/2 W Gum St, Marion, KY 42064",Larry Duvall,Ag Teacher,(270) 704-0653,larry.duvall@crittenden.kyschools.us,
-85.3636376,36.8002252,Educational Greenhouse,Cumberland County High School,"912 N Main St, Burkesville, KY 42717",Jason Dodoson,Principal,(270) 864-3451,jason.dodson@cumberland.kyschools.us,
-87.0849275,37.7298237,Educational Greenhouse,Daviess County High School,"4255 New Hartford Rd, Owensboro, KY 42303",Kathy Hoffman,Ag Program Coordinator,(270) 686-4643,kathy.hoffman@kctcs.edu,
-87.0827556,37.7173282,Educational Greenhouse,Owensboro Community & Technical College,"4800 New Hartford Rd, Owensboro, KY 42303",Chad Askins,Ag Teacher,(270) 852-7310,chad.askins@daviess.kyschools.us,
-83.1292457,38.0851928,Educational Greenhouse,Elliott County High School,"349 KY-7, Sandy Hook, KY 41171",John C. Williams,Superintendent,(606) 738-8002,john.williams@elliott.kyschools.us,
-84.9077546,38.1624543,Educational Greenhouse,Western Hills High School,"100 Doctors Dr, Frankfort, KY 40601",Kylen Douglas,Ag Teacher / FFA Advisor,,kylen.douglas@franklin.kyschools.us,
-84.5700212,37.6021513,Educational Greenhouse,Garrard County High School,"599 Industry Rd, Lancaster, KY 40444",Aaron McDonald,Ag Teacher,,aaron.mcdonald@garrard.kyschools.us,
-84.6735106,38.6885872,Educational Greenhouse,Grant County High School,"715 Warsaw Rd, Dry Ridge, KY 41035",Larry Butler,Ag Teacher,,larry.butler@grant.kyschools.us,
-85.8816687,37.2596237,Educational Greenhouse,Hart County High School,"1014 S Dixie Hwy, Munfordville, KY 42765",Ashley Thomas,Ag Teacher,,ashley.thomas@hart.kyschools.us,
-87.5022508,37.3236524,Educational Greenhouse,Hopkins County Board of Education,"320 S Seminary St, Madisonville, KY 42431",Steve Gilliam,Facilities Manager,(270) 825-6017,steve.gilliam@hopkins.kyschools.us,
-84.6163589,37.885744,Educational Greenhouse,West Jessamine County High School,"2101 Wilmore Rd, Nicholasville, KY 40356",Christina Thomas,FFA Advisor,,christina.thomas@jessamine.kyschools.us,
-84.6531215,37.5132166,Educational Greenhouse,Lincoln County High School,"60 Education Way, Stanford, KY 40484",Harvey Franklin,,,harvey.franklin@lincoln.kyschools.us,
-88.0808395,37.0937215,Educational Greenhouse,Lyon County High School,"209 Fairview Ave, Eddyville, KY 42038",Mercedes Smith,,(270) 210-2852,mercedes.smith@lyon.kyschools.us,
-83.8109894,38.6086019,Educational Greenhouse,KCTCS/Maysville Community & Technical College,"1755 US-68 BUS, Maysville, KY 41056",Carrie Taylor,Horticulturist,(606) 759-7141 ext. 66232,carriel.taylor@kctcs.edu,
-83.7898966,38.6347103,Educational Greenhouse,Mason County High School,"1320 US-68, Maysville, KY 41056",Andrew Sorrell,Ag Teacher,,andrew.sorrell@mason.kyschools.us,
-87.233119,37.5483882,Educational Greenhouse,McLean County High School,"1959 KY-136, Calhoun, KY 42327",Drew Taylor,Principal,(270) 273-5278,drew.taylor@mclean.kyschools.us,
-84.762414,37.752152,Educational Greenhouse,Burgin Independent FFA Chapter,"440 E Main St, Burgin, KY 40310",Travis York,Ag Teacher,,travis.york@burgin.kyschools.us,
-84.8621682,37.7840695,Educational Greenhouse,Mercer County High School,"1124 Moberly Rd, Harrodsburg, KY 40330",Michael Jones,Ag Teacher,(859) 734-6364,michael.jones@mercer.kyschools.us,
-85.7003218,36.6926566,Educational Greenhouse,Monroe County High School,"755 Old Mulkey Rd, Tompkinsville, KY 42167",Max Petett,Principal,,Max.Petett@Monroe.kyschools.us,
-87.2242112,37.3611238,Educational Greenhouse,Bremen Elementary School,"5000 Main St, Bremen, KY 42325",Krista Venza,Principal,,venzak@mail.muhlsdk12.org,
-87.1860815,37.2232556,Educational Greenhouse,Muhlenberg County High School,"501 W Everly Brothers Blvd, Greenville, KY 42345",Derrick Benton,Ag Teacher (East),,derrick.benton@muhlenberg.kyschools.us,
-84.037627,38.3138472,Educational Greenhouse,Nicholas County High School,"103 School Dr, Carlisle, KY 40311",Cameron Earlywine,Ag Teacher / FFA Advisor,,cameron.earlywine@nicholas.kyschools.us,
-84.603407,37.1084814,Educational Greenhouse,Pulaski County High School,"511 University Drive, Somerset, KY 42503",Janella Miller,Ag Teacher,(606) 679-1574,janella.miller@pulaski.kyschools.us,
-84.0118676,38.5288769,Educational Greenhouse,Robertson County High School,"1760 Sardis Rd, Mt Olivet, KY 41064",Sanford Holbrook,Superintendent,,sanford.holbrook@robertson.kyschools.us,
-86.5809143,36.7154668,Educational Greenhouse,Franklin-Simpson High School,"400 S College St, Franklin, KY 42134",Felicia Dalton,Ag Teacher,(270) 586-2019,felicia.dalton@simpson.kyschools.us,
-85.380028,37.35962,Educational Greenhouse,Taylor County High School,"2705 Old Hodgenville Rd, Campbellsville, KY 42718",Lindsay Wayne,Ag Teacher / FFA Advisor,,lindsay.wayne@taylor.kyschools.us,
-85.2138428,37.7077326,Educational Greenhouse,Washington County High School,"300 US-150, Springfield, KY 40069",Bart Mattingly,Ag Teacher,(859) 336-5475,bart.mattingly@washington.kyschools.us,
-87.7130614,37.499073,Educational Greenhouse,Webster County High School,"1922 Us Highway 41A S, Dixon, KY 42409",Margo Bruce,Ag Teacher,,margo.bruce@webster.kyschools.us,
-84.7318011,38.0623693,Educational Greenhouse,Woodford County High School,"180 Frankfort St, Versailles, KY 40383",Tracy Probst,,(859) 619-1041,tracy.probst@woodford.kyschools.us,
-85.751283,38.2556928,Farmers' Market,4th Street Live Farmers' Market,"Louisville, KY 40202",Ken Stanfield,,(502) 741-7139,director@louisvillegrows.org,
-85.3136218,37.076403,Farmers' Market,Adair County Farmers' Market,"Columbia, KY 42728",Nick Roy,,(270) 384-2317,nick.roy@uky.edu,
-86.1905424,36.7533781,Farmers' Market,Allen County Scottsville Farmers' Market,"Scottsville, KY 42164",Lori Hogue,,(270) 237-1958,hoguefarms@outlook.com,
-84.8966171,38.0372967,Farmers' Market,Anderson County Farmers' Market (The Old Depot),"Lawrenceburg, KY 40342",Nathan H. Truesdell,,(502) 859-4845,nathan@circle-t-farms.com,
-88.9736762,37.0767199,Farmers' Market,Ballard County Farmers' Market,"La Center, KY 42056",Tracy Hobbs,,(270) 462-2394,thobbs@brtc.net,
-85.4669025,37.8092279,Farmers' Market,Bardstown Farmers' Market,"Bardstown, KY 40004",Robbie Smith,,(502) 348-9204,robsmith@uky.edu,
-85.702868,38.2292332,Farmers' Market,Bardstown Road Farmers' Market,"1722 Bardstown Road Louisville, KY 40205",Stan Gentle,,,dreamcatcherfarm@bellsouth.net,http://www.bardstownroadfarmersmarket.com
-85.91,37,Farmers' Market,Barren County Regional Farmers' Market,"Glasgow, KY 42142",Daniel Hodges,,(270) 670-9783,sdhodges@glasgow-ky.com,
-83.71597,38.1372463,Farmers' Market,Bath County Farmers' Market,"2914 East Highway 60 Owingsville, KY 40360",Robert Amburgey,,(606) 674-6121,ramburge@uky.edu,
-86.8758256,37.4019918,Farmers' Market,Beaver Dam Farmers' Market,"Beaver Dam, KY 42320",Alisa Pharis,,(270) 274-7106,bdcity@bellsouth.net,
-85.7769164,38.1459555,Farmers' Market,Beechmont Open Air Farmers' Market,"Louisville, KY 40214",Tamara Brown,,(502) 551-6679,flourgirlcatering@yahoo.com,
-84.3,37.57,Farmers' Market,Berea Farmers' Market Inc,"Berea, KY 40404",Faye Adams-Eaton,,(859) 813-0750,bereafarmersmarket859@gmail.com,http://www.bereafarmersmarket.org
-85.316622,37.9103403,Farmers' Market,"Bloomfield Farmers' Market ""From the Field""","Bloomfield, KY 40008",Laura Barnett,,(502) 252-9232,barnettt22@yahoo.com,
-84.5012435,38.1248882,Farmers' Market,Blue Grass Stockyards Farmers' Market,"Lexington, KY 40511",Andre' Barbour,,(270) 777-5881,barbourfreshmeat@hotmail.com,http://www.bgregionalmarketplace.com
-84.027427,38.3120197,Farmers' Market,Blue Licks Farmers' Market,"Carlisle, KY 40311",Jeanine Gallagher,,(606) 724-5906,jeaninegallagher10@hotmail.com,
-84.375233,37.9923606,Farmers' Market,Bluegrass Farmers' Market,"Lexington, KY 40509",Babette Overman,,(703) 586-7278,bsoverman@gmail.com,http://www.bluegrassfarmersmarket.org
-84.7241133,39.02756,Farmers' Market,Boone County Farmers Market,"Burlington, KY 41005",Coy Wilson,,(859) 586-6101,coy.wilson@uky.edu,http://www.boonecountyfarmersmarket.org
-85.91,37,Farmers' Market,Bounty Of The Barrens Farmers' Market,"Glasgow, KY 42142",Josh Johnson,,(270) 646-7357,brandi.button@wku.edu,http://www.bountyofthebarrens.com
-86.4808043,36.9685219,Farmers' Market,Bowling Green Farmers' Market,"Bowling Green, KY 42101",Dorothy Richmond,,(270) 392-4206,dorothyrichmond12@yahoo.com; jcingram@twc.com,
-82.6537455,38.4803833,Farmers' Market,Boyd County Farmers' Market,"Ashland, KY 41101",Lori Bowling,,(606) 739-5184,lori.bowling@uky.edu,
-84.7721702,37.6456329,Farmers' Market,Boyle County Farmers' Market,"Danville, KY 40422",John Wyatt,,(859) 229-5504,boyleco.farmersmarket@gmail.com,http://www.eatlocaldanville.org
-84.0657632,38.6825719,Farmers' Market,Bracken County Farmers' Market,"Brooksville, KY 41004",Ella Bowling,,(606) 782-0192,ebowling82@gmail.com,
-84.4919005,38.0597099,Farmers' Market,Bread Box Farmers' Market,"501 West Sixth Street Lexington, KY 40508",Eryn Clayton,,(859) 967-6951,eryn@westsixth.com,http://www.breadboxlex.com
-83.3835135,37.5531457,Farmers' Market,Breathitt County Farmers' Market (Formerly known as UK Robinson Center Farm,"Jackson, KY 41339",Reed Graham,,(606) 666-8812,reed.graham@uky.edu,
-86.4605337,37.7800591,Farmers' Market,Breckinridge County Farmers' Produce Market,"Hardinsburg, KY 40143",Carol M. Hinton,,(270) 756-2182,cmhinton@uky.edu,http://www.local-farmers-markets.com/market/1862/hardinsburg/breckinridge-cou
-84.4138259,37.4042496,Farmers' Market,Brodhead Farmers' Market,"Brodhead, KY 40409",Jennifer Bauer,,(443) 617-5071,brodheadfarmersmarket@gmail.com,
-85.3705186,36.7903399,Farmers' Market,Burkesville Farmers' Market,"Burkesville, KY 42717",Kay Williams,,(270) 433-7400,cumberland.k@gmail.com,http://www.cumberlandcountyfood.com
-87.835295,36.8650496,Farmers' Market,Cadiz - Trigg County Farmers' Market,"Cadiz, KY 42211",Leida Underhill,,(270) 522-8756,lunderhill@cityofcadiz.com,
-87.8819594,37.1092162,Farmers' Market,Caldwell County Farmers' Market,"Princeton, KY 42445",Stephen Shafer,,,shafer78@yahoo.com,
-84.4518854,39.0331169,Farmers' Market,"Campbell County Farmers' Market, Inc.","Highland Heights, KY 41076",Susan Turner,,(859) 380-0742,sortliebturner@zoomtown.com,
-82.9485023,38.3325812,Farmers' Market,Carter County Farmers' Market,"Grayson, KY 41143",Myron Evans,,(606) 474-6686,mevans@uky.edu,
-85.9838273,37.8108517,Farmers' Market,City Of Vine Grove Farmers' Market,"300 West Main Street Vine Grove, KY 40175",Jackie Johnson,,(270) 877-2422,jackie@vinegrove.org,http://www.vinegrove.org
-82.8268265,37.1184318,Farmers' Market,City of Whitesburg/Letcher County Farmers' Market,"Whitesburg, KY 41858",Louise Murtaugh,,,murtaughlouise@gmail.com,http://www.letchercountyfarmersmarket.com
-83.7618641,37.1537007,Farmers' Market,Clay County Community Farmers' Market,"Manchester, KY 40962",Melissa Wyatt,,(606) 598-2789,jcasada@uky.edu,http://www.claycountyfarmersmarket.com/
-85.1346776,36.6908991,Farmers' Market,Clinton County Farmers' Market,"Albany, KY 42602",Bobby Reneau,,(606) 387-5404,colby.guffey@uky.edu,
-86.4808043,36.9685219,Farmers' Market,Community Farmers' Market,"Bowling Green, KY 42101",Susan Warrell,,(270) 202-3971,communityfarmersmarketbg@gmail.com,http://www.communityfarmersmarketbg.com
-87.983914,37.5467135,Farmers' Market,Country Fresh Farmers' Market,"Sturgis, KY 42459",Cathy Arnold,,(270) 333-0280,cathy.arnold@countryfreshsturgis.com,http://www.countryfreshsturgis.com
-84.5274616,39.073028,Farmers' Market,Covington Farmers' Market,"Covington, KY 41011",Megan Ayers,,(859) 261-7111,meganayers@rcov.org,http://www.rcov.org/covfarmersmarket
-85.6975327,38.253122,Farmers' Market,Crescent Hill UMC Farmers' Market,"201 S. Peterson Avenue Louisville, KY 40206",Amanda Cotrell,,(502) 882-2811,ariesdiva1116@gmail.com,
-85.3705186,36.7903399,Farmers' Market,Cumberland County Farmers' Market,"Burkesville, KY 42717",Chelsey Anderson,,(270) 433-7700,capick3@uky.edu,
-87.6925074,37.1672684,Farmers' Market,Dawson Springs Farmers' Market,"Dawson Springs, KY 42408",Erika Lyons,,(270) 821-3650,erika.lyons@uky.edu,
-85.6794434,38.2214782,Farmers' Market,Douglass Loop Farmers Market,"Louisville, KY 40205",Chloe Guenther,,(502) 452-2629,douglassloopfarmersmarket@gmail.com,http://www.douglassloopfarmersmarket.com
-88.3017943,36.6096151,Farmers' Market,Downtown Farmers' Market,"201 S 4Th Street Murray, KY 42071",Deana Wright,,(270) 759-9474,murraymainstreet@murray-ky.net,http://www.murrayfarmersmarket.com
-85.4478726,38.2601333,Farmers' Market,Eastwood Village Farmers' Market,"Louisville, KY 40245",Dennis Benzel,,,dennisbenzel@gmail.com,
-86.2677545,37.1925472,Farmers' Market,Edmonson County Farmers' Market,"Brownsville, KY 42210",David Embrey,,(270) 597-3628,david.embrey@uky.edu,
-83.1262839,38.0864739,Farmers' Market,Elliott County Farmers' Market,"Sandy Hook, KY 41171",Keith Center,,(606) 738-6400,keith.center@uky.edu,
-83.973813,37.700638,Farmers' Market,Estill County Farmers' Market,"Irvine, KY 40336",Hannah Eaton,,(606) 726-0679,estillcountyfarmersmarket@gmail.com,
-84.5599169,39.0472046,Farmers' Market,Farmers Market At DCCH,"Ft Mitchell, KY 41017",Jeannie Carnes,,(859) 393-8477,gonetopotflowers@yahoo.com,http://www.dcchfarmersmarket.com
-85.2221819,37.6853413,Farmers' Market,Farmers' Market At The Depot,"Springfield, KY 40069",Kathy Elliott,,(859) 336-5440,springfieldcityprojects@gmail.com,
-85.4988548,37.2608936,Farmers' Market,Farmers' Market on Green River,"Greensburg, KY 42743",Jaclyn Hodges,,(270) 932-4341,jaclyne.hodges@lcdhd.org,
-87.9166915,37.6833776,Farmers' Market,Farmers' Market On Main,"Morganfield, KY 42437",Josie Watson,,(270) 952-6307,bellswhistles112@gmail.com,
-85.3136218,37.076403,Farmers' Market,"Farmers' Market On The Square, LLC","Columbia, KY 42728",Darrell Andrew,,,darrell@duo-county.com,
-83.7338076,38.4222995,Farmers' Market,Fleming County Farmers' Market,"Flemingsburg, KY 41041",Rose Ann Masters,,(606) 849-4969,roseann@mastersacres.com,
-82.7715486,37.6656527,Farmers' Market,Floyd County Farmers' Market,"Prestonsburg, KY 41653",Chris Steele,,(606) 263-1669,fcfm2017@yahoo.com,
-84.4540213,39.0799481,Farmers' Market,Fort Thomas Farmers' Market,"Ft Thomas, KY 41075",Debbie Buckley,,(859) 441-1055,dbuckley@ftthomas.org,http://ftthomas.org
-84.8732835,38.2009055,Farmers' Market,Franklin County Farmers' Market,"Frankfort, KY 40601",Lee Ann Jones,,(502) 695-9035,jones751@bellsouth.net,http://www.franklincountyfarmersmarket.org/
-86.5772177,36.722263,Farmers' Market,Franklin-Simpson Farmers' Market,"Franklin, KY 42134",Jason Phillips,,(270) 586-4484,jason.phillips1@uky.edu,http://simpson.ca.uky.edu/
-88.8742259,36.5042277,Farmers' Market,Fulton County Farmers' Market,"Fulton, KY 42041",Penny Fleming,,(731) 335-3100,pennyjofleming@yahoo.com,
-84.5779957,37.6195246,Farmers' Market,Garrard County Farmers Market,"Lancaster, KY 40444",Jay Hettmansperger,,(859) 792-3026,jay.hettmansperger@uky.edu,
-84.5604977,38.6381245,Farmers' Market,Grant County Farmers' Market,"Williamstown, KY 41097",Debby Lucas Angel,,(859) 824-3355,gc_fm@yahoo.com,
-85.751283,38.2556928,Farmers' Market,Gray Street Farmers' Market,"Louisville, KY 40202",Sara Frazier,,(502) 852-6655,farmersmarket@louisville.edu,http://louisville.edu/sphis/gsfm
-86.2938637,37.4800544,Farmers' Market,Grayson County Farmers' Market,"Leitchfield, KY 42754",Whitney Carman,,(270) 259-3492,whitney.carman@uky.edu,http://grayson.ca.uky.edu/content/farmers-market
-82.7779437,38.5503577,Farmers' Market,Greenup County Farmers' Market,"Wurtland, KY 41144",Linda S.  Hieneman,,(606) 836-0201,linda.hieneman@uky.edu,
-86.754988,37.9000554,Farmers' Market,Hancock County Farmers' Market,"Hawesville, KY 42348",Sage Taylor,,(270) 927-8137,sage.taylor@hancockky.us,
-85.8649408,37.7030646,Farmers' Market,Hardin County Farmers Market,"Elizabethtown, KY 42701",Brenda Thomas,,,jbthomas25@gmail.com,http://www.hcfarmersmarket.com
-83.3227595,36.8455715,Farmers' Market,"Harlan County Farmers' Market, LLC","201 South Main Street Harlan, KY 40831",Raymond Hartlove,,(606) 574-0322,harlancountyfarmersmarket@gmail.com,
-84.2941013,38.3903526,Farmers' Market,Harrison County Farmers' Market,"Cynthiana, KY 41031",Kathy Wright,,(859) 234-9522,kathywbf@gmail.com,http://www.harrison.ca.uky.edu/Farmersmarket
-85.8910819,37.2722751,Farmers' Market,Hart County Farmers' Market,"Munfordville, KY 42765",Virginia Davis,,(270) 524-2892,hart_co@scrtc.com,
-84.2946539,37.7478572,Farmers' Market,"Harvest 859 Farmers' Market, Inc.","Richmond, KY 40475",Heather Fields,,(859) 396-8491,harvest859@gmail.com,
-87.5900134,37.8361538,Farmers' Market,Henderson Farmers' Market,"Henderson, KY 42420",Amy Cates,,(270) 823-6150,catesfarmpro@yahoo.com,http://www.hendersonfarmersmarketky.com
-83.9638426,36.6185504,Farmers' Market,Henderson Settlement Farmers' Market,"Frakes, KY 40940",Casey Smith,,(606) 337-3613,missadv2@hsumc.org,http://www.hendersonsettlement.com
-85.1696768,38.4334003,Farmers' Market,Henry County Farmers' Market,"New Castle, KY 40050",Levi Berg,,(502) 845-2811,levi.berg@uky.edu,
-84.0832646,37.1289771,Farmers' Market,Heritage Farmers' Market,"London, KY 40741",Wayne Riley,,(606) 224-8111,kyhistoryman@yahoo.com,https://lcaahc.org/
-88.9933965,36.6672813,Farmers' Market,Hickman County Farmers Market,"Clinton, KY 42031",Kenny Wilson,,(270) 653-4369,hickmancountyjudgeexec@gmail.com,http://www.kygreatriverroad.org/RotaryPark/
-87.4988882,37.3281005,Farmers' Market,Hopkins County Farmers' Market,"Madisonville, KY 42431",Erika Lyons,,(270) 821-3650,erika.lyons@uky.edu,
-87.4886186,36.8656008,Farmers' Market,Hopkinsville-Christian County Downtown Farmers' Market,"Hopkinsville, KY 42240",Laura Faulkner,,(270) 887-4285,lfaulkner@comdev-services.com,http://www.hopkinsvilleky.us/visitors/historic_hopkinsville/downtown_farmers_
-88.0811349,37.3328286,Farmers' Market,Imogene Stout Market on Main (Previously called Market on Main),"Marion, KY 42064",Susan Alexander,,(270) 965-5015,susan@crittendenchamber.org,
-84.5327038,38.9328899,Farmers' Market,Independence Farmers' Market,"Independence, KY 41051",Sharon Wright,,(859) 640-1609,sherchuck1@gmail.com,
-83.9979834,37.430364,Farmers' Market,Jackson County Farmers' Market,"McKee, KY 40447",Cathy Howell,,(606) 287-7693,chowell@uky.edu,
-85.5655814,38.1938484,Farmers' Market,Jeffersontown Farmers' Market,"10434 Watterson Trail Louisville, KY 40299",Roni Reed,,(502) 267-8333,hopegrowngardens@yahoo.com,http://www.jeffersontownky.com
-84.5729961,37.8806341,Farmers' Market,Jessamine County Farmers' Market Inc.,"Nicholasville, KY 40356",Joan Stevens,,(859) 887-2797,joanymryes@aol.com,
-82.8071054,37.8145384,Farmers' Market,Johnson County Farmers' Market,"Paintsville, KY 41240",Brian Jeffiers,,(606) 789-8108,brian.jeffiers@uky.edu,http://www.johnsonextension.com
-82.9804414,37.3359313,Farmers' Market,Knott County Farmers Market,"Hindman, KY 41822",Ali Hintz,,(606) 785-5475,ahintz@hindmansettlement.org,
-83.8888138,36.8664765,Farmers' Market,Knox County Farmers' Market,"Barbourville, KY 40906",Mary Beth Jewell,,,jewellmarybeth@yahoo.com,
-85.3788468,38.4075666,Farmers' Market,La Grange Farmers' Market & Artisans,"La Grange, KY 40031",Russ Morris,,(502) 243-3721,wvrussnky@live.com,http://www.lagrangefarmersmarket.com
-85.7399606,37.5739497,Farmers' Market,LaRue County Farmers' Market,"Hodgenville, KY 42748",Daniel Carpenter,,(270) 358-3401,daniel.carpenter@uky.edu,
-82.6196296,38.0968873,Farmers' Market,Lawrence County Farmers' Market,"249 Industrial Park Road Louisa, KY 41230",Laura Maggard,,(606) 673-9495,laura.opell@uky.edu,
-85.2527381,37.5697868,Farmers' Market,Lebanon/Marion County Farmers Market,"Lebanon, KY 40033",Danielle Ford,,(270) 692-2421,no email,
-83.3187952,38.599243,Farmers' Market,Lewis County Farmers Market,"Vanceburg, KY 41179",Philip Konopka,,(606) 796-2732,philip.konopka@uky.edu,
-84.5091102,38.0488113,Farmers' Market,Lexington Farmers' Market,"Lexington, KY 40508",Josh England,,,info@lexingtonfarmersmarket.com,http://www.lexingtonfarmersmarket.com
-84.6618876,37.5311901,Farmers' Market,Lincoln County Farmers' Market,"Stanford, KY 40484",Susan Miller,,(606) 669-3374,susanmiller40@hotmail.com,
-87.9166915,37.6833776,Farmers' Market,Local Harvest Farmers' Market,"Morganfield, KY 42437",Mark Livers,,(270) 285-3845,markliversfarm@yahoo.com,
-86.887219,36.8453199,Farmers' Market,Logan County Farmers' Market,"Russellville, KY 42276",Leann Martin,,(270) 726-6323,leann.martin@uky.edu,
-84.0832646,37.1289771,Farmers' Market,London-Laurel County Farmers' Market,"London, KY 40741",Fred King,,(606) 521-9219,fking@kelsan.biz,http://laurel.ca.uky.edu/FarmersMarket
-85.5303033,38.262658,Farmers' Market,Louismill Anchorage Farmers' Market,"12102 LaGrange Road Anchorage, KY 40223",Lori Himmelsbach,,(502) 494-7012,eat@mozzapi.com,http://www.louismill.com/market
-85.6124794,38.2729337,Farmers' Market,Lyndon Farmers' Market,"7515 Westport Road Louisville, KY 40222",David Williams,,(502) 425-2266,office@westportroadchristianchurch.org,http://www.westportroadchristianchurch.org/farmers.html
-88.080301,37.0944971,Farmers' Market,Lyon County Farmers' Market,"Eddyville, KY 42038",Yolanda Jones,,,giandreayolanda@gmail.com,
-84.2946539,37.7478572,Farmers' Market,Madison County Farmers' Market,"Richmond, KY 40475",Myra E.  Isbell,,(859) 624-9573,myraisbell@msn.com,
-83.0687816,37.7525922,Farmers' Market,Magoffin County Farmers' Market,"Salyersville, KY 41465",Courtney Jenkins,,(606) 349-3216,calacy2@uky.edu,
-88.350315,36.8572781,Farmers' Market,Marshall County Farmers' Market,"Benton, KY 42025",Nikki Bell,,(270) 527-3285,nikki.bell@uky.edu,
-82.5387633,37.8664833,Farmers' Market,Martin County Farmers' Market,"Inez, KY 41224",Roger Mollette,,(606) 298-7742,rmollett@uky.edu,
-83.744365,38.6411854,Farmers' Market,Mason County Farmers' Market,"Maysville, KY 41056",Eric Keef,,(606) 584-0051,e-keef@hotmail.com,
-84.4774386,36.6989673,Farmers' Market,"McCreary County Farmers' Market, LLC","Stearns, KY 42647",Doug Stephens,,(606) 376-2413,dstephens@mccrearycounty.com,
-86.9248483,37.3775995,Farmers' Market,McHenry Community Craft and Farm Market,"McHenry, KY 42354",Misty Riger,,(270) 274-0457,misty_michael@att.net,
-87.2583316,37.5389351,Farmers' Market,McLean County Farmers' Market,"Calhoun, KY 42327",David Fourqurean,,(270) 273-3690,dfour2@uky.edu,
-86.1694143,37.9989592,Farmers' Market,Meade County Farmers' Market,"Brandenburg, KY 40108",Katie Thomas,,(270) 763-7682,katie.thomas@fallenmaplefarm.com,
-83.6257452,37.950916,Farmers' Market,Menifee County Farmers' Market,"Frenchburg, KY 40322",Robert Doyle,,(606) 768-6334,owentonrobert@hotmail.com,
-84.8432852,37.762298,Farmers' Market,Mercer County Farmers' Market,"Harrodsburg, KY 40330",Jessica Bessin,,(859) 734-4378,jessica.bessin@uky.edu,http://mercer.ca.uky.edu/FarmersMarket
-85.6121906,36.9800563,Farmers' Market,Metcalfe County Farmers Market,"Edmonton, KY 42129",Rose Saltsman,,,metcalfecountyfarmersmarket@gmail.com,
-85.5354724,38.2371687,Farmers' Market,Middletown Farmers' Market,"Middletown, KY 40243",Steve Hess,,(502) 426-9979,hess_s@bellsouth.net,
-85.6916396,36.7022797,Farmers' Market,Monroe County Farmers' Market,"Tompkinsville, KY 42167",Kevin Lyons,,(270) 487-5504,klyons@uky.edu,
-83.9432556,38.0564679,Farmers' Market,Montgomery County Farmers' Market,"Mt Sterling, KY 40353",William Day,,(859) 497-9170,mdpayne5668@gmail.com,
-83.2596216,37.9214758,Farmers' Market,Morgan County Farmers' Market,"West Liberty, KY 41472",Kelli Cox,,(606) 743-9968,thecoxhomestead@gmail.com,
-85.5457877,38.0500627,Farmers' Market,Mt. Washington Farmers' Market,"Mt Washington, KY 40047",Lori Puchino,,(502) 744-8100,lpuchino@mtwky.org,
-87.1597417,37.2391988,Farmers' Market,Muhlenberg County Farmers' Market,"Powderly, KY 42367",Brenda Walker,,(270) 820-6953,muhlcofm@yahoo.com,
-84.5729961,37.8806341,Farmers' Market,Nicholasville Farmers' Market,"Nicholasville, KY 40356",Babette Overman,,(859) 792-8237,bsoverman@gmail.com,http://www.nicholasvillefarmersmarketky.com/
-85.7641013,38.2429908,Farmers' Market,Old Louisville FarmWorks Market,"Louisville, KY 40203",Russ  Gritton,,(502) 343-8251,rgritton@bardstowncable.net,
-84.8418926,38.536456,Farmers' Market,Owen County Farm And Craft Market,"Owenton, KY 40359",Ginny Miller,,(502) 484-5703,ginny.cook@uky.edu,
-87.0424393,37.750555,Farmers' Market,Owensboro Regional Farmers' Market,"Owensboro, KY 42303",Bruce Kunze,,(270) 685-8480,bkunze1@aol.com,http://www.owensbororegionalfarmersmarket.org/
-83.6749145,37.4761991,Farmers' Market,Owsley County Farmers' Market,"Booneville, KY 41314",Paul  Sizemore,,(606) 593-5109,psizemor@uky.edu,
-88.6000478,37.0833893,Farmers' Market,Paducah Homegrown Farmers' Market,"Paducah, KY 42001",Molly Tomasallo Johnson,,(270) 444-8508,mtjohnson@paducahky.gov,http://paducahky.gov/farmers-market
-84.2529869,38.2097987,Farmers' Market,Paris-Bourbon County Farmers' Market,"Paris, KY 40361",Gwen Dever,,(859) 987-6614,info@bourboncountyfarmersmarket.com,
-84.3302142,38.6767372,Farmers' Market,Pendleton County Farmers' Market,"Falmouth, KY 41040",Lindie Huffman,,(859) 654-3395,lindie.huffman@uky.edu,http://pendleton.ca.uky.edu/FarmersMarket
-83.1932284,37.24954,Farmers' Market,Perry County Farmers' Market,"Hazard, KY 41701",Emily Whitaker,,,perrycountyfarmersmarket@gmail.com,
-85.7230719,38.2415063,Farmers' Market,Phoenix Hill NuLu Farmers' Market,"Louisville, KY 40204",Cindy Brown Kinloch,,,phoenixhillmarket@gmail.com,
-82.5187629,37.4792672,Farmers' Market,Pikeville Farmers' Market,"Pikeville, KY 41501",Suzanne Stumbo,,(606) 432-2534,sstum1@uky.edu,http://pike.ca.uky.edu/content/pikeville-farmers-market
-83.8582525,37.8456373,Farmers' Market,Powell County Farmers' Market,"Stanton, KY 40380",Valerie Stewart,,(606) 663-6405,vstewart@uky.edu,
-85.615517,38.345068,Farmers' Market,Prospect Area Farmers' Market,"Prospect, KY 40059",Steve Hess,,(502) 426-9979,hess_s@bellsouth.net,
-84.6585555,37.2784114,Farmers' Market,Pulaski Growers Farmers' Market,"Eubank, KY 42567",Lois Alexander,,(606) 423-2587,no email,
-85.9202327,37.8338245,Farmers' Market,Radcliff Farmers' Market,"Radcliff, KY 40160",Jeffery S. England,,(270) 351-4714,jengland@radcliff.org,
-85.6590203,38.252036,Farmers' Market,Rainbow Blossom Farmers' Market,"3738 Lexington Road Louisville, KY 40207",Lane Tucker,,(502) 896-0189,lane.tucker@rainbowblossom.com,http://www.rainbowblossom.com
-83.5315093,37.0121018,Farmers' Market,Red Bird Mission Food Security Project And Farmers' Market,"70 Queendale Center Beverly, KY 40913",Travis Adkins,,(606) 598-0520,tadkins@rbmission.org,
-84.3333017,37.3954851,Farmers' Market,Renfro Valley KOA Farmers' Market,"184 KOA Campground Road Mt Vernon, KY 40456",Holly Richard,,(606) 256-2474,holly_richard@hotmail.com,
-85.1793979,38.6808958,Farmers' Market,Riverview Farmers' Market,"Carrollton, KY 41008",Christin Herbst,,(502) 732-7030,christin.herbst@uky.edu,
-85.7157924,37.9883991,Farmers' Market,Robards Barn Farmers' Market,"Shepherdsville, KY 40165",Shelly King,,(502) 645-0774,robardsbarn@gmail.com,
-84.3404919,37.3528615,Farmers' Market,Rockcastle County Farmers' Market,"Mt Vernon, KY 40456",Brenda Parsons,,(606) 231-3918,kaykayt4.95@gmail.com,
-86.5488713,37.5900543,Farmers' Market,Rough River Dam Farmers' Market,"Falls Of Rough, KY 40119",Patti Owen,,(270) 257-2311,patti.owen@ky.gov,
-83.4326841,38.1839705,Farmers' Market,Rowan County Farmers' Market,"Morehead, KY 40351",Bob Marsh,,(606) 784-5457,rmarsh@uky.edu,
-85.0885667,37.0561788,Farmers' Market,Russell County Farmers' Market,"Russell Springs, KY 42642",Darrell Andrews,,(270) 343-4475,darrell@duo-county.com,
-84.5588311,38.2097967,Farmers' Market,Scott County Farmers' Market,"Georgetown, KY 40324",Sharon Flynt,,(502) 863-0984,sflynt@uky.edu,http://scott.ca.uky.edu/FarmersMarket
-85.2235666,38.2120144,Farmers' Market,Shelby County Farmers' Market,"Shelbyville, KY 40065",Lea Miller,,,shelbycountyfarmersmarket@gmail.com,http://www.shelbycokyfarmersmarket.com
-85.3552349,38.22257,Farmers' Market,Simpsonville Farmers' Market,"Simpsonville, KY 40067",Chris Turlock,,(502) 722-8793,simpsonvillepark@cityofsimpsonvilleky.com,
-86.4808043,36.9685219,Farmers' Market,"SoKY Marketplace, Inc.","Bowling Green, KY 42101",Courtney McBaen,,(270) 202-0256,sokymarketplace@gmail.com,http://www.sokymarketplace.org
-84.6041084,37.0920222,Farmers' Market,Somerset Farmers Market,"Somerset, KY 42501",Sharon Walton,,(606) 871-0410,no email,http://www.somersetfarmersmarket.com
-85.7820416,38.1830462,Farmers' Market,South Points Farmers' Market,"Louisville, KY 40215",Kala Diamond,,(502) 491-0072,market@foodliteracyproject.org,
-85.8281458,38.0950217,Farmers' Market,Southwest Farmers Market,"Louisville, KY 40272",Myra Michele Pendleton,,(502) 937-9499,michelependleton.66@gmail.com,
-84.9097338,38.6804851,Farmers' Market,Sparta Farmers' Market,"100 Main Street Sparta, KY 41086",Vona V. Fuellhart,,,vona@libertybb.com,
-85.62301,38.2272106,Farmers' Market,St. Andrew Farmers' Market,"2608 Browns Lane Louisville, KY 40220",Cheryl Willett,,(502) 452-1777,cheryl901@bellsouth.net,http://www.saintandrewucc.org/eventsinfo/our-farmers-market
-85.634576,38.3276462,Farmers' Market,St. Francis in the Fields Farmers' Market,"Harrods Creek, KY 40027",Elaine Hambley,,(812) 968-3693,hambleyfarms@gmail.com,
-85.6466346,38.2517813,Farmers' Market,St. Matthews Farmers' Market,"4100 Shelbyville Road Louisville, KY 40207",Dale Mercker,,(502) 896-1161,stmatthewsfarmersmarket@gmail.com,http://smfarmersmarket.com/
-85.3424533,38.0317304,Farmers' Market,Taylorsville Farmers' Market,"Taylorsville, KY 40071",Sandi Deutsch,,(502) 477-2217,deutschfarmllc@gmail.com,https://spencer.ca.uky.edu/farmersmarket
-84.6008093,39.0140872,Farmers' Market,The Dixie Farmers' Market,"Erlanger, KY 41018",Jenifer Megerle,,(859) 727-2525,jenifer.megerle@cityoferlanger.com,
-85.3419069,37.3433974,Farmers' Market,The Farmers' Market Association of Taylor County,"Campbellsville, KY 42718",Kenneth Pierce,,(270) 465-5995,kenneth@kennethpierce.com,
-85.7624992,38.2169261,Farmers' Market,UofL Belknap Farmers' Market,"Louisville, KY 40292",Darlene Shircliff,,(502) 852-6250,darlene@louisville.edu,
-84.8491126,36.8297937,Farmers' Market,Wayne County Farmers' Market,"Monticello, KY 42633",Glen Roberts,,(606) 348-8453,groberts@uky.edu,
-87.731749,37.408222,Farmers' Market,Webster County Farmers' Market #1WC,"211 US Highway 41A Dixon, KY 42409",Vicki Shadrick,,(270) 639-9011,vicki.shadrick@uky.edu,
-85.9435746,37.9995164,Farmers' Market,West Point Farmers' Market,"West Point, KY 40177",Gary Masterson,,,Gary23502@gmail.com,
-85.5766466,38.3018831,Farmers' Market,Westport Road Baptist Farmers' Market,"Louisville, KY 40241",Sandi Deutsch,,(502) 252-1400,deutschfarmllc@gmail.com,
-84.1596561,36.7434169,Farmers' Market,"Whitley County Farmers' Market, Inc.","Williamsburg, KY 40769",Nancy Hayes,,(606) 515-0011,wcfarmermarket@gmail.com,whitley.ca.uky.edu/FarmersMarket
-84.1796503,37.990079,Farmers' Market,Winchester-Clark County Farmers' Market,"Winchester, KY 40391",Molly Stotts,,(859) 229-9469,myfathersgarden@hotmail.com,
-83.547409,37.7342526,Farmers' Market,Wolfe County Farmers' Market,"Campton, KY 41301",Heather Graham,,(606) 668-3712,heather.graham@uky.edu,
-84.7585019,38.0471492,Farmers' Market,Woodford County Farmers' Market,"184 Beasley Dr. Versailles, KY 40383",Faye Kuosman & Connie Sanrock,,(859) 873-4601,faye.tewksbury@uky.edu,
-88.361781,36.948927,Farmers' Market,ZCBC Farmers' Market,"1532 US-68W Benton, KY 42025",Charles Frazier,,(270) 703-8048,kygardening@gmail.com,
-87.2100769,36.861744,Horticulture Supply,"Deerfield Supplies, LLC","2825 Stringtown Road, Elkton, KY 42220",,,(270)-265-2425,,"Greenhouse and Vegetable, Specialized Production Implements, Irrigation Equipment, Fertilizers"
-84.8668886,37.2115791,Horticulture Supply,Martin's Produce Supply,"5627 S Fork Ridge Rd, Liberty, KY 42539",,,(606)-787-9389,,
-84.7893124,37.6404232,Horticulture Supply,Pro Ag Sales and Service,"410 Valksdahl Ave, Danville, KY 40422",,,(859)-236-1445,,
-87.1689336,36.7527702,Horticulture Supply,"Kentucky Organic Farm and Feed, Inc.","4050 Guthrie Road, Guthrie KY 42234",,,(270)-265-5004,,Organic Fertilizers
-87.3834915,36.7457754,Horticulture Supply,"D and R Supplies, LLC","1472 Pruitt Lane, Pembroke KY 42266",,,(270)-475-2160,,"Greenhouse, Garden Seeds, Liquid Fish Fertilizer, Sprayers"
-87.5122975,36.7556511,Horticulture Supply,"Hopkinsville AG, LLC","2850 Memory Lane, Hopkinsville KY 42240",,,(270)-887-0083,,"Custom Seed Mixes, Fertilizers"
-87.2046653,36.8775749,Horticulture Supply,Scenic Acres,"3577 Stringtown Road, Elkton KY 42220",,,(270)-265-5835,,"Greenhouse and High Tunnels, Greenhouse Doors, Hobby Houses"
-87.1215581,36.9181562,Horticulture Supply,Ramer Seed Supply,"344 Boley Road, Sharon Grove KY 42280",,,(270)-277-7107,,"Alta, Barrenbrug, WIL Alfalfas, Partners Brand"
-87.2987352,36.855352,Horticulture Supply,Sauder Farm Country Market,"959 Britmart Road, Elkton KY 42220",,,(270)-885-1048,,Vegetable Seed Supply
-87.4102887,36.8386134,Horticulture Supply,Sunnyside Greenhouse,"1220 Edwards Mill Road, Hopkinsville KY 42240",,,,,Custom Germinating and Finishing Plants
-87.2953603,36.8376531,Horticulture Supply,IR Greenhouse Installation,"443 Roger Q Mill Rd Pembroke, KY 42266",,,(270)-886-4344,,
-84.513317,37.498483,Horticulture Supply,Schrock's Produce Supply,"2598 Hwy. 39 N. Crab Orchard, KY 40419",,,(606)-355-7534,,Closed Thursday and Sunday
-84.939888,37.194364,Produce Auction,Casey County Produce Auction,"524 S Fork Creek Rd, Liberty, KY 42539",,,(606) 787-5158,http://www.uky.edu/ccd/pricereports/KYPA/casey,(606) 787-0570
-87.30877,36.84835,Produce Auction,Fairview Produce Auction,"10292 US Hwy 68E, Pembroke, KY 42266",,,(270) 887-0053,http://www.uky.edu/ccd/pricereports/KYPA/fairview,(270) 712-8502
-85.972379,37.293561,Produce Auction,Hart County Produce Auction,"6880 Cub Run Hwy, Munfordville, KY 42765",,,(270) 624-0005,http://www.uky.edu/ccd/pricereports/KYPA/hart,
-84.514334,37.502641,Produce Auction,Lincoln County Produce Auction,"2896 KY Hwy 39 N, Crab Orchard, KY 40419",,,(606) 355-0030,http://www.uky.edu/ccd/pricereports/KYPA/lincoln,(606) 355-0001
-83.71597,38.137246,Produce Auction,Bath County Produce Auction,"2914 East Hwy 60, Owingsville, KY 40360",Dan Miller,Auction Manager,(606) 336-0103,http://www.uky.edu/ccd/pricereports/KYPA/bath,
-87.356741,36.8558016,Roadside Stand,Hoover's Garden Patch,"615 Old Butler Road, Hopkinsville KY 42240",,,,,
-87.1558438,36.6856526,Roadside Stand,Jo Ann's Country Flowers,"6785 Russellville Road, Guthrie KY 42234",,,(270)-483-2806,,
-87.4964361,36.7226066,Roadside Stand,Country Side Fruit Market,"2425 Milliers Mill Road, Oak Grove KY 42262",,,(270)-885-4816,,
-86.7005349,37.1138989,Roadside Stand,A Littlebit of Wylie,"1127 Richland Church Road Morgantown, KY 42261",Gina Wylie,,(270) 526-8697,ginawylie11602@aol.com,
-85.4226497,37.0623818,Roadside Stand,Amelia Mcgough/Dba Gingerbread Farm & Gardens,"5055 Edmonton Road Columbia, KY 42728",Amelia Mcgough,,(270) 250-5873,gingerbreadtradingpost@gmail.com,
-82.9685365,36.9844163,Roadside Stand,Apple Tree Orchards,"21991 Us 119 Cumberland, KY 40823",Terry Creech,,(606) 589-5735,gandtcreech@yahoo.com,
-83.4381563,38.2547215,Roadside Stand,Arv's Woodworking & Crafts,"4455 Cranston Road Morehead, KY 40351",Arv Allen,,(606) 784-5916,allenarv1948@gmail.com,
-84.856942,38.4274562,Roadside Stand,Ayres Family Orchard,"525 Wilson Ln Owenton, KY 40359",Larry Ayres,,(502) 484-5236,ayresapples@att.net,www.ayresapples.com
-85.8477588,37.3735118,Roadside Stand,Backwood Craft,"2717 Locust Grove Road Bonnieville, KY 42713",Curtis Nunn,,(270) 531-3301,cnmoparman@yahoo.com,
-84.3565416,37.7641282,Roadside Stand,Baldwin Farms,"1113 Tates Creek Rd Richmond, KY 40476",Margery Baldwin,,(859) 582-5785,mbaldwin@baldwinfarmsky.com,www.baldwinfarmsky.com
-84.2261198,37.9442351,Roadside Stand,"Beech Springs Farm Market, LLC","4776 Old Boonesboro Rd Winchester, KY 40391",Mary Beth Hendricks,,(859) 744-2868,mbhend27@yahoo.com,www.beechspringsfarmmarket.com
-84.3,37.57,Roadside Stand,Berea College Farm,"CPO 1743 Berea, KY 40404",Sean Clark,,(859) 985-3402,farmstore@berea.edu,www.berea.edu/anr/farm-enterprises/
-88.6957019,37.0853515,Roadside Stand,Berries By The Mall,"5315 Stanley Cemetery Road Paducah, KY 42001",Burton Gregory,,(270) 705-1677,kgarey50@hotmail.com,
-84.5639115,38.2267848,Roadside Stand,Bi-Water Farm & Greenhouse,"877 Cincinnati Rd Georgetown, KY 40324",Stephen Fister,,(502) 863-3676,biwaterfarm@bellsouth.net,www.biwaterfarm.com
-84.1489607,37.8648211,Roadside Stand,Big - Swing Farm,"2645 Doylesville Rd Richmond, KY 40475",Martha W. Thurman,,(859) 624-0211,davidsgirl614@aol.com,
-83.1741035,38.6058757,Roadside Stand,Big Barn Farm Store,"225 Mongomery Rd PO Box 550 Garrison, KY 41141",Jacob Bentley,,(606) 757-9208,jakegwena@outlook.com,
-83.7728189,37.6243801,Roadside Stand,Bledsoe's Farm,"3572 Highway 399 Beattyville, KY 41311",Charles Bledsoe,,(606) 560-6027,cbledsoe2000@yahoo.com,
-84.8206388,37.2202503,Roadside Stand,Bobbett's,"106 Country Way Liberty, KY 42539",Bobbett Jascor,,(606) 787-0926,bobbett@windstream.net,www.BobbettsGarlic.com
-85.3316969,38.5674913,Roadside Stand,Bray Orchard & Roadside Market,"2580 Hwy 42 W Bedford, KY 40006",Jamae Bray Pyles,,(502) 255-3607,brayorch@bellsouth.net,www.brayorchards.com
-88.7810866,36.5027779,Roadside Stand,Broken Comb Apiaries,"1404 E Stateline Rd Fulton, KY 42041",David Harmeling,,(573) 703-6560,dmhclh@gmail.com,
-87.550369,37.3578958,Roadside Stand,Brumfield Farm Market,"3320 Nebo Rd Madisonville, KY 42431",David Brumfield,,(270) 821-2721,brumfieldmarket@att.net,www.brumfieldfarmmarket.com
-85.521782,37.401995,Roadside Stand,Brush Creek Blueberries and Produce,"659 Taylors Chapel Road Campbellsville, KY 42718",Jacky Pierce,,(270) 465-1221,kenneth@kennethpierce.com,
-84.2645671,37.57808,Roadside Stand,Bygone Blooms Farm,"328 Short Line Pike Berea, KY 40403",Tiffany Johnson,,,johnsontrose@outlook.com,
-84.528332,37.974682,Roadside Stand,Caludi's Fields,"4210 Nicholasville Rd Lexington, KY 40515",Cal & Judi Blake,,(859) 285-0609,caludib@windstream.net,
-87.60732,37.7261418,Roadside Stand,Cates Farm,"8132 Pruitt Agnew Rd Henderson, KY 42420",Amy Cates,,(270) 827-1135,catesfarmpro@yahoo.com,
-85.677921,37.9250644,Roadside Stand,Cavalcade Farm,"1348 Clermont Road Shepherdsville, KY 40165",Darrell Hester,,(502) 648-2044,darrellhester14@gmail.com,
-87.9085204,37.1422109,Roadside Stand,Cayce's Pumpkin Patch/Cayce Farms,"153 Farmersville Road Princeton, KY 42445",Harold Cayce,,(270) 365-2132,e.cayce@att.net,www.caycespumpkinpatch.com
-87.3198831,37.6606167,Roadside Stand,Cecil Farms Produce Delivery,"8753 and 9408 Mulligan Road Owensboro, KY 42301",Suzanne Cecil White,,(270) 929-1445,suzannececilwhite@gmail.com,www.cecilfarmspd.com
-83.9786615,38.4890906,Roadside Stand,Cedar Oak Farm,"1874 Ogden Ridge Road Mt Olivet, KY 41064",Wendy Mitchell,,(606) 842-0325,rfd4ems@yahoo.com,
-87.3015254,37.0665474,Roadside Stand,Coal Creek Orchard,"22850 Coal Creek Rd Hopkinsville, KY 42240",Cory Houston,,(270) 348-4720,coal.creek16@gmail.com,
-85.6370372,38.0156987,Roadside Stand,Country Corner Greenhouse & Nursery Inc.,"4877 Hwy 44E Shepherdsville, KY 40165",Ann Vowels,,(502) 955-8635,countrycornergreenhouse@gmail.com,www.countrycornergreenhouse.com
-84.0956129,38.7204857,Roadside Stand,Country Love Sales,"3243 Bladeston Drive Brooksville, KY 41004",Linda Or Doug Campoamor,,(606) 735-2096,doug@countrylovesales.com,www.countrylovesales.com
-83.6041307,38.1893937,Roadside Stand,Crawford's,"6485 Lower Licking Rd Morehead, KY 40351",Will Crawford,,(606) 776-7991,wscraw28@yahoo.com,
-86.7856467,37.1757503,Roadside Stand,D & D Family Produce,"488 Stringtown Rd Morgantown, KY 42261",Dennis Cardwell,,(270) 526-2169,djcardwell1@hotmail.com,
-84.537737,38.1913997,Roadside Stand,Dan Propes,"258 Harmony Ridge Georgetown, KY 40324",Dan Propes,,(270) 590-5436,doc134134@yahoo.com,
-85.5819111,37.2086397,Roadside Stand,Davis Family Farms,"313 Hwy 1464 Greensburg, KY 42743",David R. Davis,,(270) 565-1336,,
-85.8300472,37.1803189,Roadside Stand,Dennison's Roadside Market,"5824 S Jackson Hwy Horse Cave, KY 42749",Paul & Kathy Dennison,,(270) 786-1663,caffiekat@yahoo.com,
-84.873988,37.851806,Roadside Stand,Devine's Farm & Corn Maze,"188 Man O War Harrodsburg, KY 40330",Glenn & Martina Devine,,(859) 613-6900,info@devinescornmaze.com,www.devinescornmaze.com
-83.547409,37.7342526,Roadside Stand,Donald & L. Marie McClure,"5114 Holly Rd P O Box 823 Campton, KY 41301",Donald & L Marie McClure,,(606) 668-9903,don_marie_2001@yahoo.com,
-84.1927382,36.887679,Roadside Stand,Double Hart Farm,"6550 Cumberland Falls Rd Corbin (Whitley), KY 40701",Gerald Hart,,(606) 523-0465,,
-83.6096036,38.4828847,Roadside Stand,Doyle Family Produce,"36 Foxport Rd 777 Murray Ln Flemingsburg, KY 41041",Darrell Doyle,,(606) 748-0855,darrelldoyle@windstream.net,
-87.4752848,37.5511753,Roadside Stand,Durbin Farms,"1360 Sassafras Grove Rd Sebree, KY 42455",Megan Durbin,,(812) 630-6856,megan.durbin@ymail.com,
-86.3399949,36.7426737,Roadside Stand,E Habegger Produce,"4796 Old Franklin Rd Scottsville, KY 42164",Joseph H Habegger,,(270) 622-8083,barnold@nctc.com,
-85.0760633,37.0320413,Roadside Stand,"Elohem Inc., DBA: The Fruit Market","2408 S. Hwy. 127 Russell Springs, KY 42642",Cynthia Record or Joe Branscum,,(270) 866-5250,eloheminc@duo-county.com,
-84.4770151,38.2097991,Roadside Stand,Evans Orchard and Cider Mill LLC,"180 Stone Rd Georgetown, KY 40324",Kevan Evans,,(502) 863-2255,info@evansorchard.com,www.evansorchard.com
-85.2270934,37.675589,Roadside Stand,Family Fields i Market,"308 Lebannon Hill Springfield, KY 40069",Talena Coolow / Steve Smith,,(859) 481-1516,talenac1976@att.net,
-82.9286428,38.5443707,Roadside Stand,Feathered Wing Farm,"45 Katherine Lane Greenup, KY 41144",Kimberly Harris,,(606) 932-8065,sirrahkim@aol.com,
-85.7568739,37.0401842,Roadside Stand,Forever Acres,"4748 Big Meadow Rd Knob Lick, KY 42154",Cindy Byrd,,(270) 590-8117,bryd.cindy68@gmail.com,
-85.0076452,37.6062096,Roadside Stand,Freckle Face Farm,"4818 Us 68 West Perryville, KY 40468",Ashley Miller,,(859) 516-5001,ashleyaltm@yahoo.com,
-85.1575322,38.2297152,Roadside Stand,Gallrein Farms,"1029 Vigo Rd Shelbyville, KY 40065",Milia Hurst,,(502) 633-4849,gallreinfarms@aol.com,www.gallreinfarms.com
-88.5874323,36.959508,Roadside Stand,Garrett Farms,"3800 Hardmoney Rd Paducah, KY 42003",Danny Garrett,,(270) 366-1110,mariana_wwe10@hotmail.com,
-85.1425396,38.6767768,Roadside Stand,Geez Beez,"119 Comanche Trail Carrollton, KY 41008",Dave Roberts,,(502) 525-2787,mygeezbeez@gmail.com,
-85.4278346,38.0149562,Roadside Stand,Grandma's Footsteps Canning And Homegoods,"1767 Lilly Pike Taylorsville, KY 40071",Jessica Webster,,,jw87201@gmail.com,www.facebook.com/GFCanning
-84.8935595,36.9870159,Roadside Stand,Grandpa Steve's Berrylicious Farm,"688 Hwy. 3277 Jabez, KY 42544",Stephen Shepard,,,grandpastevesberryliciousfarm65@aol.com,
-86.5266133,36.8785403,Roadside Stand,Great Berries Farm,"9550 Nashville Rd Bowling Green, KY 42101",Michael T. Webster,,(270) 368-0003,michaelwebster@insightbb.com,
-84.8562713,37.9013409,Roadside Stand,Green Acres Produce,"4395 Louisville Road Salvisa, KY 40372",Tony Beasley,,,,
-84.72697,37.064098,Roadside Stand,Haney's Appledale Farm,"8350 Hwy W 80 Nancy, KY 42544",Mark & Don Haney,,(606) 636-6148,haneys@haneysappledalefarm.com,www.haneysappledalefarm.com
-87.3925036,37.6164881,Roadside Stand,Happy Hollow Farms,"9730 KY 136 W Calhoun, KY 42327",James Murdock,,(270) 499-3774,kale_0000@yahoo.com,
-85.157973,37.0259429,Roadside Stand,Hiland Farm,"451 R. Thompson Rd Russell Springs, KY 42642",Paula Thompson,,(270) 866-6263,abc@duo-county.com,
-82.9754653,37.334794,Roadside Stand,Hindman Settlement School,"56 Education Lane Hindman, KY 41822",Jason Brashear,,(606) 785-5475,jbrashear@hindmansettlement.org,www.hindmansettlement.org
-85.6195037,37.4998227,Roadside Stand,Hinton's Orchard & Farm Market,"8361 Campbellsville Rd Hodgenville, KY 42748",Jeremy And Joanna Hinton,,(270) 325-3854,joanna@hintonsorchard.com,www.hintonsorchard.com
-85.6280898,38.3479962,Roadside Stand,Hiphip Homemade,"6700 Riverway Dr Prospect, KY 40059",Shannon Drabant,,(502) 494-9831,Drabant@me.com,
-83.3835135,37.5531457,Roadside Stand,Homestead Farms,"9958 Hwy. 1110 Jackson, KY 41339",Ty Back,,(606) 568-0840,tback@uky.edu,
-83.3314874,37.3434215,Roadside Stand,Honey Flower Farm,"115 Little Clabe Dr Hazard, KY 41701",Anita Noble,,,rebel13heart@yahoo.com,
-87.5677814,37.8702541,Roadside Stand,Hopson Farms,"5422 Hwy 41 A Henderson, KY 42420",Mindy Hopson,,(270) 827-4562,mmhopson@hotmail.com,
-86.87138,37.6831068,Roadside Stand,Howard Farms,"10800 Old Leichfield Rd Whitesville, KY 42378",Barry Howard,,(270) 315-6018,barryhoward35@yahoo.com,
-84.8207628,38.2444769,Roadside Stand,Hutcherson Family Grown Produce,"2630 Steadmantown Ln Frankfort, KY 40601",Robert Hutcherson Jr.,,(502) 695-4232,veggieman4232@yahoo.com,
-82.817099,38.532651,Roadside Stand,Imel's Greenhouse,"2836 State Route 1 Greenup, KY 41144",Kenneth Imel,,(606) 473-1708,hjiery@live.com,
-84.7796025,37.8476133,Roadside Stand,Infinity View Farm,"265 Lunsford Lane Harrodsburg, KY 40330",Erin Smith,,(859) 806-3442,info@infinityviewfarm.com,www.infinityviewfarm.com
-85.7449065,37.9411182,Roadside Stand,Insane Acres Farm,"360 Pumpkin Rd Shepherdsville, KY 40165",Crystal Castro,,,Insaneacresfarm@gmail.com,
-84.6671655,37.3899724,Roadside Stand,J And J Farm,"105 South Fork Lake Rd Waynesburg, KY 40489",Julian Turpin,,(606) 282-8017,relaxme@newwavecomm.net,
-86.457005,37.043548,Roadside Stand,Jackson's Orchard & Nursery Inc,"1280 Slim Island Rd Bowling Green, KY 42101",Bill Jackson,,(270) 781-5303,JacksonsOrchard@hughes.net,www.jacksonsorchard.com
-84.5357902,37.7143816,Roadside Stand,Jlo Family Farm,"1413 Scotts Fork Road Lancaster, KY 40444",Mike Osborne,,(859) 229-9094,Lynn@mespecialty.com,
-84.2449169,38.2709502,Roadside Stand,Julie's Pumpkins,"1069 Ruddles Mill Rd Paris, KY 40361",Julie & Dennie Ferrell,,(859) 987-4498,julieferrell@att.net,
-86.6500685,36.8683251,Roadside Stand,Just Piddlin Farm,"10830 S. Morgantown Rd Woodburn, KY 42170",Chip & Jill Willingham,,(270) 542-6769,rwillingham@logantele.com,www.justpiddlinfarm.com
-84.9914908,38.2750373,Roadside Stand,Keach Manor,"4701 Lebanon Rd Bagdad, KY 40003",Nathe & Amy Keach,,(502) 607-0262,info@keach.us,www.keach.us
-83.5120347,37.9143689,Roadside Stand,Kentucky Gold Honey Products,"118 Fern Drive Wellington, KY 40387",Larry Hood,,(606) 768-9095,lh214037@gmail.com,
-86.8519417,36.6675425,Roadside Stand,Kimlee Farms,"8575 Watermelon Road Adairville, KY 42202",Brent Lee,,(270) 542-9370,leeneon@logantele.com,
-84.5973692,37.8871303,Roadside Stand,Knight Enterprises,"108 Lone Oak Dr Nicholasville, KY 40356","Dexter, Derek, and Dalton Knight",,(859) 887-1918,knight9095@windstream.net,
-84.9699905,37.59826,Roadside Stand,Knobview Farm,"12640 Lebanon Road Perryville, KY 40468",Joyce Taylor,,(859) 332-2539,knobviewfarm@yahoo.com,
-88.2938678,36.889507,Roadside Stand,Ky Hydro Farm LLC,"14 Moors Camp Hwy Benton, KY 42025",Jerry Wyatt,,(270) 703-2183,wyatt-jerry@att.net,KYhydrofarm.com
-85.208413,38.2102429,Roadside Stand,Lani's Honey Farm,"12 Main St Shelbyville, KY 40065",Lani Basberg,,(502) 321-2074,lani.basberg@gmail.com,
-83.6749145,37.4761991,Roadside Stand,Life Of Riley Farm,"1351 Amburgy Road Booneville, KY 41314",John Riley,,(606) 593-7496,nathanriley@jacksonenergy.com,
-84.6618876,37.5311901,Roadside Stand,Linda's Concessions,"322 Choctaw Trail Stanford, KY 40484",Linda Downs,,,wpdowns@adelphia.net,
-84.8612037,38.3677817,Roadside Stand,Luther Farm,"16105 Highway 127 South Owenton, KY 40359",Kevin Luther,,(502) 227-9798,klutherfarm@gmail.com,
-86.1996259,37.1555438,Roadside Stand,Mammoth Cave Transplants,"5394 Brownsville Rd Brownsville, KY 42210",Janet Dennison,,(270) 597-2533,jandave439@windstream.net,www.mammothcavetransplants.com
-88.2577231,37.4234615,Roadside Stand,McGlone Farms/Griffith Gardens,"7185 State Route 135 Marion, KY 42064",Rebecca Ann McGlone,,(270) 965-4069,rmcglon1@att.net,
-83.9084458,38.4376613,Roadside Stand,McLeans Aero-Fresh Fruit,"4085 Ewing Rd Ewing, KY 41039",Michael McLean,,(606) 267-6511,mlmclean55@yahoo.com,
-84.4564877,37.5464147,Roadside Stand,McQuerry's Herbs N Heirlooms,"169 Pine Hill Paint Lick, KY 40461",Glenda McQuerry,,(859) 792-8268,hmcquerry@gmail.com,
-85.80147,38.201282,Roadside Stand,Melton Produce,"3405 Dixie Hiway Louisville, KY 40216",Greg Melton,,(502) 751-9792,gregmelton37@yahoo.com,
-84.8420736,38.6680046,Roadside Stand,Michels Family Farm,"4275 KY Hwy 1316 Sparta, KY 41086",Jeff Michels,,(859) 643-2511,,
-88.3657258,36.9190389,Roadside Stand,Moose Farms,"866 Oak Valley Rd Benton, KY 42025",Mark Young,,(270) 205-1482,rexyoung@bellsouth.net,
-83.4753737,38.2192257,Roadside Stand,Morehead State University Derrickson Agricultural Complex,"25 MSU Farm Drive c/o Amy Lentz Morehead, KY 40351",Joe Fraley & Amy Lentz,,(606) 783-2628,a.lentz@moreheadstate.edu,www.moreheadstate.edu/agriculture/
-84.0216787,37.9874895,Roadside Stand,Mt Folly Enterprises Inc.,"3043 Schollsville Rd Winchester, KY 40391",Ben Pasley,,(859) 474-8218,ben@moonshinetrail.com,www.laurasmercantile.com
-85.1399171,38.3006977,Roadside Stand,Mulberry Orchard,"1330 Mulberry Pike Shelbyville, KY 40065",Matt or Amanda Gajdzik,,(502) 220-7516,amanda.gajdzik@gmail.com,www.MulberryOrchardKY.com
-88.1651721,37.0776541,Roadside Stand,Nelson Family Orchard,"2015 St Rt 93 N Kuttawa, KY 42055",Kimberly Nelson,,,kimbosn1@live.com,
-84.364947,38.991403,Roadside Stand,Neltner Farm LLC,"6922 Four Mile Melbourne, KY 41059",Kevin Neltner,,(859) 635-3636,neltnersfarm@gmail.com,www.neltnersfarm.com
-84.1058236,38.3300853,Roadside Stand,"Nicholas Highpoint Farms, LLC","2221 Maysville Rd Carlisle, KY 40311",Brad Logan,,(859) 351-4326,nicholashighpointfarms@gmail.com,
-83.6506575,37.3074128,Roadside Stand,Oneidafogfarms,"2111 Newfound Rd PO Box 195 Oneida, KY 40972",Deetta Barger,,(606) 847-4643,rlb987@windstream.net,
-84.5599611,37.7339906,Roadside Stand,Open Fields Homestead,"985 Leavell Ridge Rd Lancaster, KY 40444",Marie Black,,(859) 548-150,OPENFIELDSFARM@YAHOO.COM,www.openfieldshomestead.weebly.com
-83.3100111,38.4082323,Roadside Stand,Owens Farm,"470 Owens Lane Vanceburg, KY 41179",Nick Owens,,(606) 796-2409,,
-84.5386272,37.2089905,Roadside Stand,Peace Valley Farm,"8740 Hwy 39 Somerset, KY 42503",William Ping,,,Williamdping@gmail.com,
-84.6147637,39.0030023,Roadside Stand,Pepper Master,"36 Sanders Dr Florence, KY 41042",Pat Lane,,(859) 750-5209,patlaneplb@gmail.com,
-86.6451202,37.3070871,Roadside Stand,Pharris Farm,"4461 Caneyville Rd Morgantown, KY 42261",Ronald Pharris,,(270) 363-1509,reddogemt@yahoo.com,www.facebook.com/pharrisfarm
-86.8279153,36.9110362,Roadside Stand,Poore's Nursery,"168 Keeton Rd Russellville, KY 42276",Russell Poore,,(270) 542-4828,poore@logantele.com,
-84.2536453,38.2289142,Roadside Stand,Pope Family Farms,"964 Peacock Road Paris, KY 40361",Tim Pope,,(859) 585-6788,epope0009@gmail.com,
-87.2583316,37.5389351,Roadside Stand,Porter Creek Farm,"977 Jim Porter Rd Calhoun, KY 42327",Josh Ayer,,,jayer43@gmail.com,
-86.1378838,36.7208377,Roadside Stand,Porter's Pure Honey,"204 Cline Rd. Scottsville, KY 42164",Jon Porter,,,jporter354@gmail.com,
-84.7335629,37.6206241,Roadside Stand,"Preston Family, LLC","2744 Old Stanford Rd Danville, KY 40422",Billy Preston,,(859) 319-4239,,
-85.0178799,38.137396,Roadside Stand,Quarles Farm & Daylilies,"159 Hickory Ridge Rd Waddy, KY 40076",Janet Quarles,,(502) 803-7292,quarles_daylilies@yahoo.com,quarlesfarm.com
-85.7232347,37.1710203,Roadside Stand,R&A Family Farm,"3015 Crail Hope Rd Hardyville, KY 42746",Ryan Atwell,,(270) 565-2500,rmaiatwell@yahoo.com,
-87.6440081,37.1868564,Roadside Stand,"R&R Cook Farm, Llc","125 Cook Lane Dawson Springs, KY 42408",Randy Cook,,(270) 619-0393,randycook@aol.com,
-84.3414868,38.2910997,Roadside Stand,Reed Valley Orchard,"239 Lail Ln Paris, KY 40362",Trudie Reed,,(859) 987-6480,info@reedvalleyorchard.com,www.reedvalleyorchard.com
-87.041853,37.790165,Roadside Stand,Reid's Orchard,"4818 HWY 144 Owensboro, KY 42303",Billy Reid,,(270) 685-2444,BHR117@aol.com,www.reidorchard.com
-83.9795089,37.9071068,Roadside Stand,Rising Roots,"523 Turley Dr. Clay City, KY 40312",Michael Turley,,(704) 305-0684,turleyontheroad2@gmail.com,
-86.20767,37.918832,Roadside Stand,Roberts Family Farm,"125 Kennedy Rd Guston, KY 40142",Kevin Roberts,,(270) 422-2361,rffarm@bbtel.com,robertsfamilyfarmky.com
-84.6557449,38.3816788,Roadside Stand,Rocking Bee Farm,"926 Coppage Road Stamping Ground, KY 40379",James Butcher,,,big_butch1435@yahoo.com,
-88.589847,37.0690334,Roadside Stand,Rose Gardens And Orchards,"1622 S 6Th St Paducah, KY 42003",Julieann Rose,,(270) 908-6658,julieann.rose@rosegardnesandorchards.com,www.rosegardensandorchards.com
-83.2250807,37.9064045,Roadside Stand,Rose's Big Spring Branch,"10062 Hwy 460 East West Liberty, KY 41472",Linda Rose,,(606) 743-7817,lrr10@mrtc.com,
-86.5786932,36.6804605,Roadside Stand,Ruby Branch Farms,"780 Lake Spring Rd. Franklin, KY 42134",Laney Snider,,(270) 776-4672,rubybranchfarms@gmail.com,www.rubybranchfarms.com
-84.8674579,39.0375327,Roadside Stand,Sandyland Acres Haunted Hayride,"4172 Belleview Road Petersburg, KY 41080",Gene Webb,,(859) 322-0516,sandylandacres@aol.com,www.sandylandacres.com
-86.7715828,37.1858981,Roadside Stand,Serenity Acres Farm,"5814 Rochester Rd Morgantown, KY 42261",Laura Henderson,,,rainkingbmdh1@bellsouth.net,
-84.141481,37.6899982,Roadside Stand,Spivey's Home Grown Produce,"2220 Brassfield Rd. Richmond, KY 40475",Keith Spivey,,(859) 625-4608,slurpy@live.com,
-84.8395014,38.6600872,Roadside Stand,Steepleview Farm,"10285 Hwy 127 North Sparta, KY 41086",Marc Carey,,(859) 643-3339,marc@steepleviewfarm.net,
-84.674209,37.770086,Roadside Stand,Sticky Wicket Farms,"15144 High Bridge Rd Lancaster, KY 40444",Leslie Abbey,,(859) 548-4517,stickywicketfarms@gmail.com,www.stickywicketfarms.com
-87.4429849,37.826921,Roadside Stand,Stone Hill Honey,"6005 Hatchett Mill Rd Spottsville, KY 42458",Betsy Stone,,(270) 869-5023,bpstoneky@bellsouth.net,www.stonehillhoney.com/home
-86.7739921,37.1982849,Roadside Stand,Stuck In Time Farm/Jj Apiaries,"788 Dunbar Coal Rd Morgantown, KY 42261",Jean Beattie,,(270) 925-1429,redwing@vci.net,
-85.508981,38.151178,Roadside Stand,Sunny Acres Farm,"6516 Echo Trail Louisville, KY 40299",Tommee Clark,,(502) 727-9536,tommeeclark88@gmail.com,www.sunnyacresfarmky.com
-85.0401771,37.6000712,Roadside Stand,Terry's Berries and Produce,"4189 Craintown Rd Gravel Switch, KY 40328",Terry L. Williams,,(270) 692-2493,terrysberries@windstream.net,
-84.5757974,38.2662056,Roadside Stand,The Purple Buffalo Lavender Co.,"1932 Cincinnati Rd Georgetown, KY 40324",Debbie Owner,,,owner@purplebuffalolavender.com,
-86.5280026,36.8191146,Roadside Stand,Toodlebug Farm,"1521 Cedar Bluff Rd Woodburn, KY 42170",Tina Harris,,(270) 320-8300,teamharris03@gmail.com,www.facebook.com/groups/ToodleBugFarm/
-85.5478978,37.1810759,Roadside Stand,Triple 'D' Greenhouse & Produce,"102 Atwell-Morgan Rd. Greensburg, KY 42743",Dave Atwell,,(270) 932-7610,jo.atwell@live.com,
-84.6074203,38.2702978,Roadside Stand,Triple J Farm,"2287 Long Lick Pk Georgetown, KY 40324",Jessica McQuade,,(502) 863-6786,info@triplejfarm.org,triplejfarm.org
-84.7479996,37.0717419,Roadside Stand,"Upper ""T"" Farm","510 Vaught Rd Nancy, KY 42544",Scott or Gloria J. Whittle,,(606) 871-0256,e.whittle@rocketmail.com,
-84.41278,37.406287,Roadside Stand,Valley Farms Market,"246 Sycamore St. Brodhead, KY 40409",Spencer Bussell,,(606) 758-4522,spencer.bussell@yahoo.com,
-86.6560172,37.3218382,Roadside Stand,Van Burens Market,"1655 Dexterville Banock Road Morgantown, KY 42261",Joshua Gilpin,,(502) 974-9882,jgilpin754@gmail.com,vanburensmarket.com
-84.0349495,38.0840048,Roadside Stand,Whispering Willow,"4983 Donaldson Rd. Mt Sterling, KY 40353",Patricia Purvis,,(859) 497-6414,patpurvis@bellsouth.net,
-83.8285333,36.7884194,Roadside Stand,Wild Wood Farms,"169 Gravy Branch Road Artemus, KY 40903",Kristopher Hubbard,,(160) 654-6963,wildwoodfarmsartemus@gmail.com,
-84.7198462,37.9783376,Roadside Stand,Wildside Winery,"5500 Troy Pike Versailles, KY 40383",Neil Vasilakes,,(859) 879-3982,neil@wildsidewinery.com,www.wildsidewinery.com
-85.3541265,38.0979657,Roadside Stand,Willett Farms,"727 Normandy Road Taylorsville, KY 40071",Michael Willett,,(502) 477-8710,willettsfarms@yahoo.com,
-85.0401771,37.6000712,Roadside Stand,Williams Country Market,"4189 Craintown Rd Gravel Switch, KY 40328",Terry Williams,,(270) 692-2493,terrysberries@windstream.net,
-84.4105115,38.3173501,Roadside Stand,Willow Bend Farm,"1388 Switzer Pike Cynthiana, KY 41031",Bill Wright,,(859) 234-9522,willowbend01@gmail.com,willowbend01@gmail.com
-82.8634282,38.6130893,Roadside Stand,Wireman's Greenhouse/Wireman Family Farm,"881 Ohio River Road Greenup, KY 41144","Jeff, Melissa Or Ashley Wireman",,(606) 923-7631,missy.wireman@greenup.kyschools.us,
-84.5694985,37.6262524,Roadside Stand,Wonder Of Life Farm,"686 Buckeye Rd Lancaster, KY 40444",Maria Turner,,(859) 792-8923,maria_r_turner@yahoo.com,
-88.6662713,37.0040065,Roadside Stand,Wurth Farms,"1720 S Friendship Rd Paducah, KY 42003",Alesia Grief,,(270) 554-1403,wurthfarms@comcast.net,wurthfarms.net
-84.4704942,36.7234118,Roadside Stand,Yellow Box Bee Farm,"121 Kelly Road Whitley City, KY 42653",Jessica Musgrove,,(606) 376-5994,JESSICA.MUSGROVE@OUTDOORVENTURE.COM,
-84.4237276,37.6601828,Roadside Stand,Zephyr Creek Crossing,"7500 Highway 1295 Paint Lick, KY 40461",Sue Peterson Blyth,,(859) 328-3805,sweetsue49@gmail.com,www.facebook/zephyrcreek
-83.9955872,37.6996412,Shared Equipment,Estill County Conservation District,"1505 Richmond Rd, Irvine, Kentucky 40336",Crystal Renfro,Office Staff,(606) 723-5104,ECCD@outlook.com,No-Till Seed Drill
-85.3009084,37.1136651,Shared Equipment,Adair County Conservation District,"965 Campbellsville Rd, Columbia, KY, 42728",Steven Olt,Field Representative,(270) 384-6628,steven.olt@ky.gov,No-Till Seed Drill
-85.9311333,37.0103709,Shared Equipment,Barren County Conservation District,"207 Ymca Way, Glasgow, KY, 42141",District Office,Office Staff,(270) 629-6811,barrenconservation@gmail.com,Hay Wrapper
-84.0682546,38.6815963,Shared Equipment,Bracken County Conservation District,"218 Frankfort Street, PO Box 35, Brooksville, KY 41004",Pam Williams,Field Representative,(606) 735-3256,pam.williams@ky.gov,In-line Bale Wrapper
-84.0441818,38.6717577,Shared Equipment,Bracken County Agriculture Advancement Council,"1120 Brooksville-Germantown Rd, Brooksville, KY 41004",David Appelman,Extension Agent,(606) 735-2141,dappelma@uky.edu,Lime Spreader
-85.1572089,38.6852316,Shared Equipment,Carroll  County Conservation District,"1802 Highland Avenue, Carrollton, KY 41008",Sheila Banks,Administrative Secretary,(502) 732-6098,sheila.banks@ky.nacdnet.net,No-Till Seed Drill
-82.9365849,38.3306122,Shared Equipment,Carter County Soil Conservation District,"526 E. Main Street, Grayson, KY 41143",Melodie Bush,Administrative Secretary,(606) 474-5184,melodie.bush@ky.nacdnet.net,"No-Till Seed Drill, Lime Spreader"
-84.1839117,38.0130263,Shared Equipment,Clark County Soil Conservation District,"667 Tech Drive, Winchest, KY 40391",Angela Embry,Administrative Secretary,(859)-744-2322,angela.embry@ky.nacdnet.net,No-Till Seed Drill
-84.8186283,38.216193,Shared Equipment,Franklin County Conservation District,"103 Lakeview Court, Frankfort, KY 40601ï¾ ",Eric Phillips,Conservation Technician,(502) 352-2701,ephillipsfccd@hotmail.com,"No-Till Seed Drill, Weed Wiper/Sprayer"
-88.621661,36.7252333,Shared Equipment,Graves County Conservation District,"1000 Commonwealth Dr, Mayfield, KY 42066",Erica Marshall,Administrative Secretary,(270) 247-9529,Erica.marshall@ky.nacdnet.net,No-Till Seed Drill
-87.5077601,37.3446983,Shared Equipment,Hopkins County Farm Bureau,"585 Nebo Rd, Madisonville, KY 42431",Curtis Dame,Extension Agent,(270) 821-3650,curtis.dame@uky.edu,Sprayer
-83.9993703,37.3146914,Shared Equipment,Jackson County Cattlemen's Association,"2883 Highway 30 W, Annville, KY 40402",David Coffey,Extension Agent,(606) 287-7693,david.coffey@uky.edu,"Weed Wiper, Sprayer, Lime Spreader"
-85.7461948,37.5733556,Shared Equipment,La Rue County Conservation District,"306 West Main Street, Hodgenville, KY 42748",Paula McDowell-Wood,Office Staff,(270) 358-3132,larueccd@hotmail.com,No-Till Seed Drill
-84.0794505,37.1196606,Shared Equipment,Laurel County Cattlemen's Association,"200 County Extension Rd, London, KY 40741",Glenn Williams,Extension Agent,(606) 864-4167,dl_ces_laurel@email.uky.edu,Manure Spreader
-86.8991433,36.8443041,Shared Equipment,Logan County Conservation District,"253 Hopkinsville Rd # C, Russellville, KY 42276",Leann Martin,Extension Agent,(270) 726-6323,leann.martin@uky.edu,"No-Till Seed Drill, Vegetable Transplanter"
-84.2739742,37.7011838,Shared Equipment,Madison County Farm Bureau,"230 Duncannon Lane, Richmond, KY 40476-0270",Brandon Sears,Extension Agent,(859) 623-4072,brandon.sears@uky.edu,"No-Till Seed Drill, Manure Spreader"
-85.2628032,37.5544024,Shared Equipment,Marion County Conservation District,"682 Metts Drive, Lebanon, KY 40033",Natalie Browning,Administrative Secretary,(270) 692-3341,natalie.browning@ky.nacdnet.net,"Sprayer, Lime Spreader, Thistle Sprayer"
-83.6513099,37.9556026,Shared Equipment,Menifee County Conservation District,"2093 Highway 460 W, Frenchburg, KY 40322",April Smith,Office Staff,(606) 768-2541,april.smith@ky.nacdnet.net,No-Till Seed Drill
-84.8502879,37.7759757,Shared Equipment,Mercer County Conservation District,"227 Morris Drive, Harrodsburg, KY 40330",Linda Lake,Administrative Secretary,(859) 734-6889,linda.lake2@ky.nacdnet.net,No-Till Seed Drill
-85.6068251,36.9753005,Shared Equipment,Metcalfe County Conservation District,"100 Scott Drive, Edmonton, KY 42129",Peggy Bridges,Office Staff,(270) 432-3191,metcocd@gmail.com,"No-Till Seed Drill, Plastic Layer"
-85.6869749,36.7098238,Shared Equipment,Monroe County Conservation District,"201 West Paige Street, Thompkinsville, KY 42167",Jarad Bartley,Conservation Technician,(270) 487-6589,Jarad.bartley@ky.nacdnet.net,"No-Till Seed Drill, Thistle Sprayer"
-84.026119,38.3115686,Shared Equipment,Nicholas County Conservation District,"368 East Main Street, Carlisle, KY 40311",Erica Brierly,Administrative Secretary,(859) 289-5165,nicholasconservation@hotmail.com,"No-Till Seed Drill, Chain Harrow"
-84.3202926,38.6552253,Shared Equipment,Pendleton County Beef Cattle Association,"45 David Pribble Dr, Falmouth, KY 41040",Lindie Huffman,Extension Agent,(859) 654-3395,lindie.huffman@uky.edu,Lime Spreader
-84.6535718,37.1022041,Shared Equipment,Pulaski County Conservation District,"28 Parkway Drive, Somerset, KY 42503",Beth Wilson,Extension Agent,(606) 679-6361,beth.wilson@uky.edu,"No-Till Seed Drill, Roller Crimper, Post Driver, Sprayer"
-85.3524973,37.3276762,Shared Equipment,Taylor County Conservation District,"1105 S. Columbia Avenue Suite B, Campbellsville, KY 42718",Linda Russell,Administrative Secretary,(270) 465-4651,Linda.russell@ky.nacdnet.net,No-Till Seed Drill
-86.259011,36.901737,Shared Equipment,Warren County Cattle Producers Association,"1238 Claypool Alvaton Road, Bowling Green, KY 42103",Shane Wahl,Director,(270) 779-6078,dl_ces_warren@email.uky.ed,"Chain Harrow, Sprayer"
-85.2226901,37.6834908,Shared Equipment,Washington County Farm Bureau,"100 E Depot St, Springfield, KY 40069",Jeremy Hardin,Agency Manager,(859) 336-9472,[none],Manure Spreader
-85.2242075,37.700355,Shared Equipment,Washington County Conservation District,"461 Lincoln Drive, Springfield, KY 40069",Dana Shewmaker,Administrative Secretary,(859) 336-7777,Dana.shewmaker@ky.nacdnet.net,"Lime Spreader, Sprayer"
-84.7581091,38.0477522,Shared Equipment,Woodford County Conservation District,"180 Beasley Road, Versailles, KY 40383",Jimmy Chambers,Administrative Secretary,(859) 873-4941,woodfordcd@gmail.com,No-Till Drill
-83.069311,37.746311,Water Testing Lab,"Mineral Labs, Inc.","309 Parkway Dr., Salyersville, KY 41465 ",,No,606-349-6145,sharlonda@minerallabs.com,Scheduling encouraged
-84.525291,38.001179,Water Testing Lab,"Microbac Laboratories, Inc.","2520 Regency Road, Lexington, KY 40503",,Yes,859-276-3506,lisa.martin@microbac.com,Scheduling encouraged
-86.03432,37.562802,Water Testing Lab,White Mills Laboratory/Hardin Co. Water District No. 2,"1300 Cave Road, Glendale, KY 42740",,No,270-862-3213,WhiteMillsLab@hardincountywater2.org,Scheduling encouraged
-87.155513,36.651702,Water Testing Lab,Logan/Todd Regional Water Commission ,"248 Tower Street, Guthrie, KY 42234",,No,270-483-6990,tmccullough@ltrwc.org,Scheduling required
-85.557805,38.198561,Water Testing Lab,Beckmar Environmental Laboratory,"3251 Ruckriegel Parkway, Louisville Ky 40299",,Yes,502-266-6533,matt@beckmarlab.com,Scheduling optional
-84.574768,37.874623,Water Testing Lab,Hall Environmental Consultants,"1376 Danville Loop 1 Road, Nicholasville, KY 40356",,Yes,859-885-3331,rshelley@hallenvironmental.net,Scheduling encouraged
-84.734801,38.06176,Water Testing Lab,Fouser Environmental Services,"165 Camden Avenue, Versailles, Kentucky 40383",,Yes,859-873-6211,lab@fouser.com,Scheduling encouraged
-86.469427,36.960447,Water Testing Lab,HydroAnalytical WKU,"2413 Nashville Road, Bowling Green, KY 42101",,Yes,270-745-5287,ethan.givan@wku.edu,Scheduling encouraged
-87.115106,37.764758,Water Testing Lab,"Waters Agricultural Laboratories, Inc. ","2101 Calhoun Road, Owensboro, KY 42301",,Yes,270-685-4039,kyinfo@watersag.com,Scheduling encouraged
-83.436333,38.191159,Water Testing Lab,Morehead State University Water Testing Lab,"444 Ashland Avenue, Morehead, KY 40351",,No,606-783-2961,jrmason@moreheadstate.edu,Scheduling required
-88.641672,37.056605,Water Testing Lab,"McCoy & McCoy Laboratories, a Pace Analytical Laboratory","3038 Lone Oak Rd Suite 4, Paducah, KY 42003",Archie Fugate,Yes,270-821-7375 ext. 117,archie@mccoylabs.com,Scheduling optional
-84.44471,38.033936,Water Testing Lab,"McCoy & McCoy Laboratories, a Pace Analytical Laboratory","2456 Fortune #160, Dr Lexington, KY 40509",Archie Fugate,Yes,270-821-7375 ext. 117,archie@mccoylabs.com,Scheduling optional
-82.528632,37.461988,Water Testing Lab,"McCoy & McCoy Laboratories, a Pace Analytical Laboratory","173 Island Creek Rd Pikeville, KY 41501",Archie Fugate,Yes,270-821-7375 ext. 117,archie@mccoylabs.com,Scheduling optional
-87.549713,37.359551,Water Testing Lab,"McCoy & McCoy Laboratories, a Pace Analytical Laboratory",,Archie Fugate,Yes,270-821-7375 ext. 117,archie@mccoylabs.com,Scheduling optional
-83.6949176,36.76203,Shared Equipment,Bell County Cooperative Extension ,"101 Courthouse Sq, Pineville, KY 40977",Stacy J. White,,(606) 337-2376,sjwhite@uky.edu,"Bed Shaper, Plastic Layer, Plastic Lifter, Plastic Roller, Lime Spreader, Vegetable Transplanter, No-Till Drill, Honey Extraction Equipment, Tillers, Sprayer, Broadcast Seeder"
-86.4615516,37.7621643,Shared Equipment,Breckinridge County Cooperative Extension ,"US-60 & KY-261, Hardinsburg, KY 40143","Hobdy, Dye, Reed",,(270) 756-2555,,"Sprayer, No-Till Drill"
-85.3686741,36.7850455,Shared Equipment,Cumberland County Soil Conservation District ,"329 Keen Street, Burkesville, KY 42717",Wanda Gilbert,,(270) 864-2206,wanda.gilbert@gmail.com,"Sprayer, Lime Spreader, No-Till Drill"
-85.7461948,37.5733556,Shared Equipment,Larue County Soil Conservation District ,"306 West Main Street, Hodgenville, KY 42748",Paula Wood,,(270) 358-3132,,No-Till Drill
-83.7009406,37.5818123,Shared Equipment,Lee County Soil Conservation District ,"32 Big Hill Drive, Beattyville, KY 41311",Lee County Conservation district,,(606) 565-8480,,"Lime Spreader, Chain Harrow, No-Till Drill"
-84.6742343,37.5495905,Shared Equipment,Lincoln County Farm Bureau,"233 Doe Run Rd, Stanford, KY 40484",,,(606) 365-2447,,"Sprayer, Lime Spreader, Manure Spreader, Chain Harrow, Post Driver, No-Till Drill, Broadcast Seeder"
-88.3971012,37.154656,Shared Equipment,Livingston County Cooperative Extension ,"803 US-60, Smithland, KY 42081",Adam Barnes,,(270) 928-2168,adam.barnes1@uky.edu,Honey Extraction Equipment
-86.2092329,36.7430173,Shared Equipment,Allen County Soil Conservation District ,"77 Woodland Circle Drive, Scottsville, KY 42164",Susan Mcpherson ,,(270) 237-3180,susan.mcpherson@ky.usda.gov,"Sprayer, Manure Spreader, Post Driver, No-Till Drill"
-88.8881352,37.082819,Shared Equipment,Ballard County Soil Conservation District ,"1156 Kentucky Ave, Kevil, KY 42053",NRCS,,(270) 462-8561,,No-Till Drill
-85.9311333,37.0103709,Shared Equipment,Barren County Soil Conservation District ,"207 YMCA Way, Glasgow, KY 42141",Lindsie Kinslow,,(270) 629-6811,,No-Till Drill
-87.8998918,37.112155,Shared Equipment,Caldwell County Soil Conservation District ,"503 Parkway Drive, Princeton, KY 42445",Mike Clayton,,(270) 366-6530,,"No-Till Drill, Crimper "
-88.3517367,36.6039745,Shared Equipment,Calloway County Soil Conservation District ,"88 Robertson Rd S., Murray, KY 42071",Cindy Cossey,,(270) 767-0491,cindy@callowayconservation.com,No-Till Drill
-82.9365849,38.3306122,Shared Equipment,Carter County Soil Conservation District ,"526 E. Main Street, Grayson, KY 41143",Carter County Conservation District,,(606) 474-5184,melodie.bush@ky.nacdnet.net,"Sprayer, Lime Spreader, No-Till Drill"
-84.1839117,38.0130263,Shared Equipment,Clark County Soil Conservation District ,"667 Tech Dr, Winchester, KY 40391",Angie Embry,,(859) 745-2828 ext.3,,No-Till Drill
-88.0801604,37.3326682,Shared Equipment,Crittenden County FFA Alumni,"118 E. Bellville St, Marion, KY 42064",Dee Heimgartner,,(270) 965-5236,deanna.brasher@uky.edu,"No-Till Drill, Honey Extraction Equipment"
-82.7650143,37.7138714,Shared Equipment,Floyd County Cooperative Extension ,"3490 KY-321, Prestonburg, KY 41653",Keith Hackworth & Andrea Johnson (kitchen) ,,(606) 886-2668,khackwor@uky.edu and andrea.johnson2@uky.edu,Honey Extraction Equipment
-84.2963788,38.3807539,Shared Equipment,Harrison County Cooperative Extension ,"668 New Lair Rd, Cynthiana, KY 41031",Evonne Blackburn,,(859) 234-5510,eblackbu@uky.edu,"Bed Shaper, Plastic Layer, Plastic Lifter, Plastic Roller, Sprayer, Lime Spreader, Vegetable Transplanter, Chain Harrow, No-Till Drill, Honey Extraction Equipment"
-84.0012956,37.4303062,Shared Equipment,Jackson County Jackson County Cattlemen's Association,"1408 Main Street South, McKee, KY 40447",David Coffey,,(606) 287-7693,david.coffey@uky.edu,"Sprayer, Lime Spreader, Chain Harrow, No-Till Drill, Wagon"
-84.5661473,37.8633665,Shared Equipment,Jessamine County Cooperative Extension ,"95 Park Drive, Nicholasville, KY 40356",Jessica Lawrence,,(859) 8854811,jlawrence@uky.edu,"Bed Shaper, Plastic Layer, Plastic Lifter, Plastic Roller, Sprayer"
-85.2627771,37.554364,Shared Equipment,Marion County Soil Conservation District ,"682 Metts Drive, Lebanon, KY 40033",Natalie Browning ,,(270) 692-2431,,"Sprayer, Lime Spreader, No-Till Drill, Aerator"
-82.5287316,37.865025,Shared Equipment,Martin County Cooperative Extension ,"1338 Main Street, Inez, KY 41224",Roger Mollette,,(606) 298-7742,rmollett@uky.edu,"Bed Shaper, Plastic Layer, Honey Extraction Equipment"
-84.6046649,38.2108892,Shared Equipment,Menifee County Soil Conservation District ,"2093 Highway 460 W, Frenchburg, KY 40322",April Smith,,(606) 768-2541,,"Bed Shaper, Plastic Layer, Lime Spreader, No-Till Drill"
-85.6889424,36.7100353,Shared Equipment,Monroe County Soil Conservation District ,"201 West Paige Street, Tompkinsville, KY 42167",Jarad Bartley,,(270) 487-6528,jarad.bartley@ky.nacdnet.net,"Sprayer, No-Till Drill"
-83.6756734,37.4767583,Shared Equipment,Owsley County Soil Conservation District ,"Jockey Street, Booneville, KY 41314",Sandy Gay,,(606) 593-7505,,"Bed Shaper, Plastic Layer, Lime Spreader, Vegetable Transplanter, Chain Harrow, No-Till Drill"
-85.3416416,38.0317805,Shared Equipment,Spencer County Soil Conservation District ,"410 Railroad St, Taylorsville, KY 40071",Doloras Richardson,,(502) 477-1157,,No-Till Drill
-87.7943776,36.8690547,Shared Equipment,Trigg County Soil Conservation District ,"193 Commerce Street, Cadiz, KY 42211",Trigg County Conservation District,,(270) 522-3304,,No-Till Drill
-83.5456925,37.7346387,Shared Equipment,Wolfe County Soil Conservation District ,"Main Street, Campton, KY 41301",Kevin Hileman,,(606) 668-3111,,"Lime Spreader, Manure Spreader, Chain Harrow, No-Till Drill, Aerator"
-86.6849989,37.2278291,Shared Equipment,Butler County Soil Conservation District ,"216 W Ohio St C, Morgantown, KY 42261",,,(270) 526-3784,,No-Till Drill
-85.1299267,36.6825268,Shared Equipment,Clinton County Soil Conservation District ,"801 Tennessee Rd, Albany, KY 42602",,,(606) 387-5196,,"Lime Spreader, Post Driver, No-Till Drill"
-84.9041271,38.0780022,Shared Equipment,Anderson County Farm Bureau,"1245 Ninevah Road, Lawrenceburg, KY 40342",Tommy Yankey,,(502) 839-7271,tyankey@uky.edu,"No Till Seed Drill, Lime Spreader"
-84.2963788,38.3807539,Shared Equipment,Harrison County Cooperative Extension ,"668 New Lair Road, Cynthiana, KY 41031",Evonne Blackburn,,(859) 234-5510,evonne.blackburn@uky.edu,"Plastic Layer, Plastic Lifter, Water Wheel Setter"
-85.1289333,38.661459,Shared Equipment,Carroll County Soil Conservation District ,"500 Floyd Drive, Carrollton, KY 41008",Christin Herbst,,(502) 732-7030,christin.herbst@uky.edu,"Soil Probe, Compaction Probe"
-88.3537955,36.8644171,Shared Equipment,Marshall County Soil Conservation District ,"107 W 5th St, Benton, KY 42025, Benton, KY 42025",Farm Service Agency,,(270) 527-3231,kybenton-fsa@one.usda.gov ,No Till Seed Drill 
-84.2344598,38.2225279,Shared Equipment,Bourbon County Soil Conservation District ,"603 Millersburg Rd, Paris, KY 40324",Ray Tackett,,(859) 987-1895,atackett@uky.edu,Electric Honey Extractor
